{"type": "Feature", "properties": {}, "geometry": {"type": "Polygon", "coordinates": [[[-11.5, 54.30804], [-11.46248, 54.3339], [-11.43747, 54.35328], [-11.39996, 54.3662], [-11.37495, 54.38557], [-11.32493, 54.39848], [-11.29366, 54.42428], [-11.25615, 54.43718], [-11.21238, 54.45651], [-11.17486, 54.47584], [-11.13735, 54.48872], [-11.10609, 54.50159], [-11.06857, 54.52733], [-11.0248, 54.5402], [-10.98729, 54.55948], [-10.94352, 54.56591], [-10.89975, 54.58519], [-10.86849, 54.60445], [-10.82472, 54.61729], [-10.7747, 54.63013], [-10.74343, 54.65578], [-10.69967, 54.6622], [-10.64965, 54.66861], [-10.60588, 54.68143], [-10.56211, 54.69424], [-10.51834, 54.70705], [-10.47457, 54.71986], [-10.4308, 54.73266], [-10.38704, 54.74546], [-10.34327, 54.75825], [-10.2995, 54.77104], [-10.26198, 54.79022], [-10.24948, 54.82855], [-10.24948, 54.86684], [-10.23697, 54.9051], [-10.23072, 54.94969], [-10.22447, 54.97514], [-10.21196, 55.0133], [-10.19946, 55.04506], [-10.1807, 55.07681], [-10.1682, 55.10218], [-10.16194, 55.14655], [-10.13693, 55.16555], [-10.12443, 55.20352], [-10.10567, 55.24146], [-10.08691, 55.26673], [-10.08691, 55.29198], [-10.06815, 55.31722], [-10.0494, 55.34244], [-10.02439, 55.38025], [-10.00563, 55.41801], [-9.97436, 55.44317], [-9.95561, 55.48088], [-9.9306, 55.506], [-9.90559, 55.54365], [-9.88683, 55.57499], [-9.86182, 55.59379], [-9.83681, 55.61883], [-9.8118, 55.63761], [-9.78679, 55.66888], [-9.76178, 55.69388], [-9.73677, 55.71886], [-9.71801, 55.74382], [-9.68674, 55.76254], [-9.66173, 55.79371], [-9.63047, 55.80617], [-9.59921, 55.83731], [-9.5742, 55.8622], [-9.53668, 55.88085], [-9.49917, 55.90572], [-9.47416, 55.93677], [-9.44915, 55.9616], [-9.41163, 55.98021], [-9.37411, 56.00501], [-9.3491, 56.02979], [-9.32409, 56.04837], [-9.28033, 56.06694], [-9.24906, 56.0855], [-9.2178, 56.11641], [-9.17403, 56.12876], [-9.14277, 56.15347], [-9.1115, 56.17816], [-9.07399, 56.19049], [-9.03022, 56.20283], [-8.99896, 56.22748], [-8.95519, 56.23981], [-8.91767, 56.26444], [-8.88641, 56.28905], [-8.8489, 56.30136], [-8.81138, 56.3198], [-8.76761, 56.33824], [-8.72384, 56.35053], [-8.68633, 56.36281], [-8.71759, 56.37509], [-8.74885, 56.3935], [-8.78637, 56.4119], [-8.82388, 56.43029], [-8.86765, 56.44868], [-8.90517, 56.46093], [-8.93643, 56.4793], [-8.97395, 56.49766], [-9.01146, 56.50989], [-9.04898, 56.52824], [-9.08649, 56.54657], [-9.12401, 56.5649], [-9.16153, 56.58322], [-9.19904, 56.60153], [-9.23656, 56.61983], [-9.27407, 56.64422], [-9.31159, 56.6625], [-9.34285, 56.68077], [-9.37411, 56.70511], [-9.41788, 56.71728], [-9.44915, 56.74161], [-9.47416, 56.77199], [-9.51167, 56.77806], [-9.53668, 56.81449], [-9.5742, 56.83268], [-9.61171, 56.85087], [-9.63047, 56.87511], [-9.66173, 56.89328], [-9.693, 56.92354], [-9.72426, 56.94168], [-9.76178, 56.95982], [-9.78679, 56.99606], [-9.8243, 57.00814], [-9.84931, 57.04433], [-9.88058, 57.06845], [-9.91184, 57.09254], [-9.9306, 57.12866], [-9.96186, 57.14069], [-9.98687, 57.16474], [-10.01188, 57.19478], [-10.04314, 57.2248], [-10.06815, 57.24879], [-10.09942, 57.27876], [-10.12443, 57.30871], [-10.13693, 57.33265], [-10.16194, 57.36255], [-10.18695, 57.39243], [-10.21196, 57.42229], [-10.23697, 57.45212], [-10.26198, 57.48788], [-10.28699, 57.51766], [-10.2995, 57.55931], [-10.31201, 57.58309], [-10.33702, 57.61278], [-10.34952, 57.65432], [-10.37453, 57.68989], [-10.39954, 57.7195], [-10.41205, 57.76092], [-10.4308, 57.79638], [-10.44331, 57.83181], [-10.44956, 57.87899], [-10.46207, 57.92022], [-10.48708, 57.94965], [-10.49958, 57.99668], [-10.51209, 58.03777], [-10.49958, 58.0671], [-10.51209, 58.10812], [-10.51834, 58.14909], [-10.52459, 58.19586], [-10.51834, 58.21922], [-10.52459, 58.26589], [-10.52459, 58.30085], [-10.53085, 58.34742], [-10.52459, 58.37068], [-10.51834, 58.40554], [-10.52459, 58.45197], [-10.51209, 58.48675], [-10.50584, 58.5215], [-10.49958, 58.55043], [-10.48708, 58.57933], [-10.47457, 58.61399], [-10.46207, 58.64284], [-10.46207, 58.67743], [-10.44956, 58.71775], [-10.43706, 58.74076], [-10.42455, 58.78101], [-10.4183, 58.80972], [-10.41205, 58.83268], [-10.39954, 58.86135], [-10.36203, 58.88427], [-10.36203, 58.91862], [-10.33076, 58.94722], [-10.32451, 58.9758], [-10.30575, 59.01577], [-10.28699, 59.04429], [-10.26198, 59.07279], [-10.24948, 59.10126], [-10.21196, 59.12402], [-10.19321, 59.15245], [-10.1682, 59.18654], [-10.14944, 59.20357], [-10.13068, 59.23193], [-10.11192, 59.26027], [-10.08691, 59.27727], [-10.0619, 59.31123], [-10.03689, 59.32254], [-10.02439, 59.35081], [-9.99312, 59.36776], [-9.96811, 59.39034], [-9.94935, 59.41855], [-9.92434, 59.4411], [-9.88683, 59.46364], [-9.86182, 59.48616], [-9.8243, 59.50866], [-9.80554, 59.52553], [-9.77428, 59.54801], [-9.73677, 59.57048], [-9.71801, 59.60415], [-9.68049, 59.61536], [-9.64923, 59.63778], [-9.61171, 59.66018], [-9.5867, 59.68257], [-9.54919, 59.70495], [-9.52418, 59.72731], [-9.48666, 59.73848], [-9.46165, 59.76082], [-9.43664, 59.77756], [-9.39912, 59.7943], [-9.36786, 59.80545], [-9.3366, 59.82774], [-9.31159, 59.85002], [-9.27407, 59.86115], [-9.23656, 59.88341], [-9.19904, 59.89453], [-9.16778, 59.91676], [-9.12401, 59.92787], [-9.08649, 59.95008], [-9.05523, 59.97228], [-9.01146, 59.98337], [-8.9802, 60.00555], [-8.93643, 60.01663], [-8.89892, 60.0277], [-8.8614, 60.04431], [-8.82388, 60.06091], [-8.78012, 60.07198], [-8.73635, 60.08856], [-8.70509, 60.10514], [-8.66132, 60.11619], [-8.6238, 60.13275], [-8.58003, 60.14931], [-8.54877, 60.16034], [-8.505, 60.17137], [-8.47374, 60.1824], [-8.42997, 60.19342], [-8.3862, 60.20444], [-8.34869, 60.22096], [-8.31117, 60.23747], [-8.2674, 60.24847], [-8.23614, 60.25397], [-8.19237, 60.27047], [-8.1486, 60.27597], [-8.10484, 60.29245], [-8.06107, 60.29794], [-8.00479, 60.30344], [-7.97353, 60.31442], [-7.92976, 60.32539], [-7.88599, 60.33637], [-7.84223, 60.34734], [-7.79846, 60.35282], [-7.74218, 60.3583], [-7.71092, 60.36927], [-7.66715, 60.38023], [-7.61713, 60.38023], [-7.57336, 60.39118], [-7.5296, 60.40213], [-7.47332, 60.40213], [-7.42955, 60.41308], [-7.37328, 60.41308], [-7.32951, 60.42403], [-7.28574, 60.43497], [-7.23572, 60.4459], [-7.17945, 60.4459], [-7.13568, 60.45684], [-7.08566, 60.45684], [-7.03564, 60.4623], [-6.98562, 60.46777], [-6.92935, 60.46777], [-6.87932, 60.47869], [-6.83556, 60.48415], [-6.77928, 60.48961], [-6.72301, 60.48961], [-6.67299, 60.48961], [-6.61672, 60.48961], [-6.56044, 60.48961], [-6.51042, 60.50053], [-6.45415, 60.50053], [-6.39787, 60.50053], [-6.34785, 60.50053], [-6.29158, 60.50053], [-6.23531, 60.50053], [-6.18529, 60.50599], [-6.12901, 60.51145], [-6.08524, 60.50053], [-6.03522, 60.50053], [-5.97895, 60.50053], [-5.92268, 60.50053], [-5.87266, 60.50053], [-5.81638, 60.50053], [-5.76636, 60.48961], [-5.71009, 60.48961], [-5.66007, 60.48961], [-5.60379, 60.48961], [-5.55377, 60.47869], [-5.4975, 60.47869], [-5.45373, 60.46777], [-5.40996, 60.46777], [-5.35994, 60.46777], [-5.30992, 60.45684], [-5.2599, 60.45137], [-5.21613, 60.45684], [-5.17236, 60.4459], [-5.12234, 60.43497], [-5.07857, 60.42403], [-5.0223, 60.42403], [-4.97228, 60.42403], [-4.93476, 60.41308], [-4.891, 60.40213], [-4.84098, 60.40213], [-4.79721, 60.39118], [-4.74719, 60.38023], [-4.70342, 60.36927], [-4.6534, 60.36927], [-4.60963, 60.3583], [-4.55961, 60.34734], [-4.51584, 60.33637], [-4.47207, 60.32539], [-4.4283, 60.31442], [-4.38454, 60.30344], [-4.33451, 60.30344], [-4.29075, 60.29245], [-4.24698, 60.27597], [-4.20321, 60.27047], [-4.15944, 60.25947], [-4.12193, 60.23747], [-4.08441, 60.23197], [-4.04064, 60.22646], [-3.99687, 60.21545], [-3.95936, 60.19342], [-3.92184, 60.1824], [-3.87182, 60.17137], [-3.83431, 60.16034], [-3.79054, 60.14931], [-3.75302, 60.12723], [-3.70925, 60.11619], [-3.67174, 60.10514], [-3.62172, 60.09409], [-3.59045, 60.07198], [-3.55294, 60.06091], [-3.51542, 60.03878], [-3.4654, 60.03878], [-3.43414, 60.01663], [-3.39662, 59.99446], [-3.35911, 59.98337], [-3.32159, 59.97228], [-3.29033, 59.95008], [-3.25281, 59.93898], [-3.2153, 59.91676], [-3.17778, 59.90565], [-3.14027, 59.88341], [-3.109, 59.86115], [-3.07149, 59.85002], [-3.03397, 59.82774], [-3.00896, 59.80545], [-2.97145, 59.78872], [-2.93393, 59.77198], [-2.89642, 59.74965], [-2.8589, 59.7329], [-2.82764, 59.71613], [-2.79637, 59.69376], [-2.74635, 59.69376], [-2.69008, 59.69376], [-2.64631, 59.70495], [-2.59004, 59.70495], [-2.53376, 59.70495], [-2.48374, 59.71613], [-2.43372, 59.71613], [-2.37745, 59.71613], [-2.32118, 59.71613], [-2.2649, 59.71613], [-2.21488, 59.72731], [-2.16486, 59.72731], [-2.10859, 59.72731], [-2.05231, 59.72731], [-1.99604, 59.72731], [-1.93977, 59.72731], [-1.88349, 59.72731], [-1.83972, 59.71613], [-1.78345, 59.71613], [-1.72718, 59.71613], [-1.6709, 59.71613], [-1.61463, 59.71613], [-1.57086, 59.70495], [-1.51459, 59.70495], [-1.45832, 59.70495], [-1.41455, 59.69376], [-1.35827, 59.69376], [-1.30825, 59.69376], [-1.25198, 59.69376], [-1.20821, 59.68257], [-1.15194, 59.68257], [-1.10817, 59.67138], [-1.0519, 59.67138], [-1.00188, 59.66018], [-0.95811, 59.64898], [-0.90809, 59.64338], [-0.85807, 59.63778], [-0.80805, 59.63778], [-0.76428, 59.62657], [-0.72051, 59.61536], [-0.66424, 59.61536], [-0.62047, 59.60415], [-0.57045, 59.59293], [-0.52668, 59.5817], [-0.48291, 59.57048], [-0.43289, 59.57048], [-0.38912, 59.55925], [-0.34535, 59.54801], [-0.29533, 59.53677], [-0.25156, 59.52553], [-0.20779, 59.51429], [-0.17028, 59.50304], [-0.12651, 59.49179], [-0.08274, 59.48053], [-0.03272, 59.46927], [0.00479, 59.45237], [0.04856, 59.44674], [0.09233, 59.43547], [0.1361, 59.42419], [0.17987, 59.40727], [0.21738, 59.39034], [0.26115, 59.37905], [0.29867, 59.36776], [0.34243, 59.35646], [0.37995, 59.33385], [0.41747, 59.32254], [0.46123, 59.31123], [0.505, 59.29425], [0.54252, 59.27727], [0.58003, 59.26594], [0.61755, 59.24894], [0.65506, 59.23193], [0.69258, 59.20924], [0.7301, 59.19789], [0.77386, 59.18654], [0.80513, 59.16382], [0.8489, 59.15245], [0.88016, 59.12971], [0.91767, 59.10695], [0.95519, 59.09557], [0.99271, 59.07279], [1.03022, 59.05569], [1.06148, 59.03859], [1.099, 59.01577], [1.13026, 58.99294], [1.16778, 58.98151], [1.19279, 58.94722], [1.2178, 58.93579], [1.25531, 58.91862], [1.29283, 58.89572], [1.31784, 58.87281], [1.35536, 58.84988], [1.39287, 58.83268], [1.41788, 58.80972], [1.4554, 58.78675], [1.48041, 58.76377], [1.51167, 58.74076], [1.54293, 58.71775], [1.5742, 58.69472], [1.59296, 58.67167], [1.61171, 58.64861], [1.64298, 58.62553], [1.66799, 58.60244], [1.693, 58.58511], [1.71801, 58.55621], [1.73677, 58.53307], [1.76803, 58.50992], [1.78053, 58.48675], [1.79929, 58.46357], [1.83055, 58.43457], [1.85556, 58.41135], [1.88058, 58.37649], [1.89308, 58.34742], [1.91809, 58.32415], [1.9431, 58.2892], [1.95561, 58.26589], [1.98062, 58.23089], [1.99312, 58.2017], [2.01813, 58.17248], [2.03064, 58.13739], [2.04314, 58.10812], [2.06815, 58.07296], [2.09316, 58.04364], [2.10567, 58.00255], [2.11817, 57.97317], [2.13068, 57.93788], [2.14318, 57.90845], [2.14944, 57.8672], [2.15569, 57.83181], [2.1682, 57.80229], [2.1807, 57.76092], [2.19321, 57.7195], [2.18695, 57.67804], [2.19321, 57.64246], [2.19321, 57.59497], [2.20571, 57.55931], [2.20571, 57.51171], [2.20571, 57.47597], [2.20571, 57.42229], [2.20571, 57.37451], [2.19321, 57.32667], [2.19321, 57.27876], [2.1682, 57.24279], [2.1682, 57.19478], [2.15569, 57.1467], [2.14318, 57.12264], [2.13068, 57.07447], [2.11817, 57.0383], [2.09942, 56.99606], [2.09316, 56.95377], [2.06815, 56.92354], [2.04314, 56.88722], [2.03064, 56.85087], [2.00563, 56.81449], [1.98687, 56.77806], [1.96811, 56.74769], [1.9431, 56.7112], [1.9306, 56.67468], [1.90559, 56.65031], [1.88058, 56.61983], [1.86182, 56.59543], [1.83681, 56.57101], [1.81805, 56.53435], [1.79304, 56.49766], [1.75552, 56.4793], [1.74302, 56.44255], [1.7055, 56.42416], [1.68049, 56.38736], [1.65548, 56.36281], [1.62422, 56.33824], [1.59296, 56.30751], [1.62422, 56.27675], [1.65548, 56.25828], [1.68674, 56.22748], [1.71801, 56.20283], [1.74302, 56.17816], [1.78053, 56.15347], [1.8118, 56.12876], [1.83055, 56.11023], [1.86807, 56.0855], [1.88683, 56.06694], [1.91809, 56.04218], [1.9431, 56.00501], [1.97436, 55.98021], [1.99937, 55.95539], [2.02439, 55.93056], [2.05565, 55.90572], [2.06815, 55.88085], [2.09316, 55.84975], [2.11192, 55.81863], [2.14318, 55.79371], [2.1682, 55.76877], [2.1807, 55.73758], [2.20571, 55.70637], [2.22447, 55.68138], [2.25573, 55.65012], [2.26824, 55.60631], [2.29325, 55.57499], [2.30575, 55.54365], [2.31826, 55.51228], [2.34327, 55.48716], [2.35577, 55.44317], [2.38078, 55.40543], [2.39329, 55.36765], [2.40579, 55.32353], [2.4183, 55.29198], [2.4308, 55.26041], [2.44331, 55.22882], [2.44956, 55.19087], [2.46207, 55.14021], [2.45581, 55.09584], [2.46832, 55.06411], [2.48083, 55.01965], [2.48083, 54.96878], [2.49333, 54.92422], [2.48083, 54.87322], [2.48708, 54.83494], [2.49333, 54.77744], [2.50584, 54.74546], [2.53085, 54.71986], [2.56836, 54.69424], [2.59337, 54.66861], [2.63089, 54.64296], [2.6559, 54.61729], [2.68091, 54.59161], [2.71842, 54.57234], [2.73718, 54.55306], [2.76845, 54.5209], [2.78095, 54.48872], [2.81221, 54.46296], [2.83097, 54.43073], [2.86849, 54.40493], [2.8935, 54.37266], [2.91851, 54.34036], [2.93727, 54.32097], [2.95602, 54.2951], [2.96853, 54.26274], [2.99354, 54.23036], [3.01855, 54.19795], [3.04356, 54.16551], [3.06232, 54.12656], [3.08108, 54.08756], [3.10609, 54.04853], [3.11859, 54.00947], [3.1436, 53.97037], [3.15611, 53.93123], [3.16861, 53.89858], [3.18112, 53.86591], [3.19362, 53.83976], [3.20613, 53.79395], [3.21238, 53.74809], [3.21863, 53.72186], [3.23114, 53.67592], [3.24364, 53.63651], [3.25615, 53.59048], [3.25615, 53.55098], [3.25615, 53.49827], [3.26865, 53.45208], [3.25615, 53.39924], [3.26865, 53.36619], [3.26865, 53.31324], [3.25615, 53.26022], [3.25615, 53.20715], [3.24364, 53.154], [3.24364, 53.10079], [3.21863, 53.0675], [3.20613, 53.01418], [3.19362, 52.97415], [3.20613, 52.9274], [3.24364, 52.91403], [3.28116, 52.88729], [3.31867, 52.86722], [3.34994, 52.84714], [3.3812, 52.82035], [3.40621, 52.80025], [3.44373, 52.78014], [3.48124, 52.75331], [-11.5, 54.30804]]]}}