{"type":"FeatureCollection","features":[{"type":"Feature","geometry":{"type":"Point","coordinates":[-3.79815,53.08656]},"properties":{"code":"101FWFWN220","label":"Conwy Valley Communities","river":"Conwy","area":"NRW Northern","type":"warning"}},{"type":"Feature","geometry":{"type":"Point","coordinates":[-5.18866,51.87438]},"properties":{"code":"102FWB442A","label":"Tidal area at Solva","river":"Irish Sea","area":"NRW South West","type":"warning"}},{"type":"Feature","geometry":{"type":"Point","coordinates":[-4.02127,52.4735]},"properties":{"code":"101FWFWN230","label":"River Leri at Dol y Bont","river":"Leri","area":"NRW Northern","type":"warning"}},{"type":"Feature","geometry":{"type":"Point","coordinates":[-3.60309,53.29034]},"properties":{"code":"101FWTWN410","label":"Abergele Seafront","river":"Irish Sea","area":"NRW Northern","type":"warning"}},{"type":"Feature","geometry":{"type":"Point","coordinates":[-2.97269,51.58543]},"properties":{"code":"103FWTt08","label":"Usk Estuary at Maindee, North Liswerry and Spytty Pill","river":"Usk Estuary","area":"NRW South East","type":"warning"}},{"type":"Feature","geometry":{"type":"Point","coordinates":[-3.53955,51.56894]},"properties":{"code":"102FWF104A","label":"River Ogmore at Blackmill","river":"Ogmore","area":"NRW South West","type":"warning"}},{"type":"Feature","geometry":{"type":"Point","coordinates":[-3.06446,52.76624]},"properties":{"code":"101FWFWN253","label":"River Vyrnwy at Llanymynech","river":"River Vyrnwy","area":"NRW Northern","type":"warning"}},{"type":"Feature","geometry":{"type":"Point","coordinates":[-4.15431,52.30494]},"properties":{"code":"102FWF164A","label":"River Wyre at Llanrhystud","river":"Wyre","area":"NRW South West","type":"warning"}},{"type":"Feature","geometry":{"type":"Point","coordinates":[-3.23443,51.48366]},"properties":{"code":"103FWF074","label":"River Ely at Ely Bridge","river":"River Ely","area":"NRW South East","type":"warning"}},{"type":"Feature","geometry":{"type":"Point","coordinates":[-4.08553,51.59396]},"properties":{"code":"102FWF170A","label":"Ilston Brook at Ilston, Gower","river":"Ilston Brook","area":"NRW South West","type":"warning"}},{"type":"Feature","geometry":{"type":"Point","coordinates":[-3.09782,51.6075]},"properties":{"code":"103FWF197307","label":"River Ebbw at Risca","river":"Ebbw","area":"NRW South East","type":"warning"}},{"type":"Feature","geometry":{"type":"Point","coordinates":[-4.97755,51.79129]},"properties":{"code":"102FWF145D","label":"Merlins Brook, Haverfordwest","river":"Western Cleddau","area":"NRW South West","type":"warning"}},{"type":"Feature","geometry":{"type":"Point","coordinates":[-3.14079,51.73144]},"properties":{"code":"103FWF197301","label":"Ebbw Fach at Abertillery","river":"Ebbw","area":"NRW South East","type":"warning"}},{"type":"Feature","geometry":{"type":"Point","coordinates":[-3.85567,52.60085]},"properties":{"code":"101FWFWN209","label":"River Dyfi at Pont ar Ddyfi","river":"Dovey, Dyfi","area":"NRW Northern","type":"warning"}},{"type":"Feature","geometry":{"type":"Point","coordinates":[-3.17503,52.60115]},"properties":{"code":"101FWFWN263","label":"River Severn in the Berriew Area","river":"River Severn","area":"NRW Northern","type":"warning"}},{"type":"Feature","geometry":{"type":"Point","coordinates":[-2.98606,51.5764]},"properties":{"code":"103FWTt10","label":"Usk Estuary at Pill","river":"Usk Estuary","area":"NRW South East","type":"warning"}},{"type":"Feature","geometry":{"type":"Point","coordinates":[-4.3134,51.73383]},"properties":{"code":"102FWB418A","label":"Tidal area at Kidwelly","river":"Irish Sea","area":"NRW South West","type":"warning"}},{"type":"Feature","geometry":{"type":"Point","coordinates":[-3.79216,53.13704]},"properties":{"code":"101FWFWN218","label":"River Conwy at Llanrwst","river":"Conwy","area":"NRW Northern","type":"warning"}},{"type":"Feature","geometry":{"type":"Point","coordinates":[-2.89558,53.09761]},"properties":{"code":"101FWFWN201","label":"River Dee communities from Llangollen to Trevalyn Meadows","river":"River Dee","area":"NRW Northern","type":"warning"}},{"type":"Feature","geometry":{"type":"Point","coordinates":[-3.7537,51.78259]},"properties":{"code":"102FWF117A","label":"River Tawe at Ystradgynlais","river":"Tawe","area":"NRW South West","type":"warning"}},{"type":"Feature","geometry":{"type":"Point","coordinates":[-3.89918,51.69555]},"properties":{"code":"102FWF120A","label":"River Lower Clydach at Clydach Bridge","river":"Tawe","area":"NRW South West","type":"warning"}},{"type":"Feature","geometry":{"type":"Point","coordinates":[-3.00097,53.1981]},"properties":{"code":"101FWTWN320","label":"Hawarden Embankment","river":"Dee Estuary","area":"NRW Northern","type":"warning"}},{"type":"Feature","geometry":{"type":"Point","coordinates":[-3.82118,53.32326]},"properties":{"code":"101FWTWN420","label":"Llandudno North Shore","river":"Irish Sea","area":"NRW Northern","type":"warning"}},{"type":"Feature","geometry":{"type":"Point","coordinates":[-3.8108,51.65704]},"properties":{"code":"102FWF112B","label":"River Neath at Neath","river":"Neath","area":"NRW South West","type":"warning"}},{"type":"Feature","geometry":{"type":"Point","coordinates":[-3.90573,51.6634]},"properties":{"code":"102FWF122B","label":"Nant-y-Fendrod and Nant Bran at Llansamlet","river":"Nant-Y-Fendrod, Nant Bran","area":"NRW South West","type":"warning"}},{"type":"Feature","geometry":{"type":"Point","coordinates":[-3.46742,53.32852]},"properties":{"code":"101FWTWN356","label":"Rhyl Splash Point","river":"Irish Sea","area":"NRW Northern","type":"warning"}},{"type":"Feature","geometry":{"type":"Point","coordinates":[-3.6389,53.29325]},"properties":{"code":"101FWTWN540","label":"Llanddulas","river":"Irish Sea","area":"NRW Northern","type":"warning"}},{"type":"Feature","geometry":{"type":"Point","coordinates":[-4.6942,51.7347]},"properties":{"code":"102FWF142B","label":"River Fords Lake at Stepaside","river":"Fords Lake","area":"NRW South West","type":"warning"}},{"type":"Feature","geometry":{"type":"Point","coordinates":[-3.3836,51.51859]},"properties":{"code":"103FWF197006","label":"River Ely at Maes y Felin","river":"River Ely","area":"NRW South East","type":"warning"}},{"type":"Feature","geometry":{"type":"Point","coordinates":[-3.30931,51.58107]},"properties":{"code":"103FWF044","label":"River Taff at Hawthorn and Rhydyfelin","river":"River Taff","area":"NRW South East","type":"warning"}},{"type":"Feature","geometry":{"type":"Point","coordinates":[-3.03413,52.73236]},"properties":{"code":"101FWFWN270","label":"River Severn in the Criggion Area","river":"River Severn","area":"NRW Northern","type":"warning"}},{"type":"Feature","geometry":{"type":"Point","coordinates":[-4.30678,51.85221]},"properties":{"code":"102FWF134B","label":"River Towy at Pensarn, Llangunnor and Old Station Road, Carmarthen","river":"Towy","area":"NRW South West","type":"warning"}},{"type":"Feature","geometry":{"type":"Point","coordinates":[-3.13518,51.69927]},"properties":{"code":"103FWF197305","label":"River Ebbw at Llanhilleth","river":"Ebbw","area":"NRW South East","type":"warning"}},{"type":"Feature","geometry":{"type":"Point","coordinates":[-3.3828,51.74342]},"properties":{"code":"103FWF038","label":"River Taff at Merthyr Tydfil","river":"River Taff","area":"NRW South East","type":"warning"}},{"type":"Feature","geometry":{"type":"Point","coordinates":[-4.32811,51.85211]},"properties":{"code":"102FWF134C","label":"River Towy at Johnstown, Carmarthen","river":"Towy","area":"NRW South West","type":"warning"}},{"type":"Feature","geometry":{"type":"Point","coordinates":[-4.21244,53.18324]},"properties":{"code":"101FWTWN600","label":"Y Felinheli","river":"Menai Strait","area":"NRW Northern","type":"warning"}},{"type":"Feature","geometry":{"type":"Point","coordinates":[-2.98574,51.59715]},"properties":{"code":"103FWTt04","label":"Usk Estuary at Riverside","river":"Usk Estuary","area":"NRW South East","type":"warning"}},{"type":"Feature","geometry":{"type":"Point","coordinates":[-3.19828,51.58874]},"properties":{"code":"103FWF197207","label":"River Rhymney at Bedwas","river":"River Rhymney","area":"NRW South East","type":"warning"}},{"type":"Feature","geometry":{"type":"Point","coordinates":[-4.21265,51.75869]},"properties":{"code":"102FWF128A","label":"River Gwendraeth Fawr at Pontyates and Ponthenry","river":"Gwendraeth Fawr","area":"NRW South West","type":"warning"}},{"type":"Feature","geometry":{"type":"Point","coordinates":[-3.13418,51.51921]},"properties":{"code":"103FWF197214","label":"River Rhymney at Llanrumney","river":"River Rhymney","area":"NRW South East","type":"warning"}},{"type":"Feature","geometry":{"type":"Point","coordinates":[-4.07703,52.11449]},"properties":{"code":"102FWF151A","label":"River Teifi at Lampeter","river":"Teifi","area":"NRW South West","type":"warning"}},{"type":"Feature","geometry":{"type":"Point","coordinates":[-3.78069,51.99359]},"properties":{"code":"102FWF136A","label":"River Gwydderig at Velindre, Llandovery","river":"Bran","area":"NRW South West","type":"warning"}},{"type":"Feature","geometry":{"type":"Point","coordinates":[-3.5055,51.52334]},"properties":{"code":"102FWF106D","label":"Nant y Geifr at Pencoed","river":"Ewenny","area":"NRW South West","type":"warning"}},{"type":"Feature","geometry":{"type":"Point","coordinates":[-3.86768,51.93952]},"properties":{"code":"102FWF137B","label":"River Bran at Llangadog","river":"Bran","area":"NRW South West","type":"warning"}},{"type":"Feature","geometry":{"type":"Point","coordinates":[-5.19047,51.8886]},"properties":{"code":"102FWF146B","label":"River Solva at Middle Mill, Solva","river":"Solva","area":"NRW South West","type":"warning"}},{"type":"Feature","geometry":{"type":"Point","coordinates":[-3.23978,51.71891]},"properties":{"code":"103FWF197201","label":"River Rhymney at New Tredegar","river":"River Rhymney","area":"NRW South East","type":"warning"}},{"type":"Feature","geometry":{"type":"Point","coordinates":[-3.67552,51.48007]},"properties":{"code":"102FWC404A","label":"Tidal area at Newton","river":"Irish Sea","area":"NRW South West","type":"warning"}},{"type":"Feature","geometry":{"type":"Point","coordinates":[-3.98059,52.4852]},"properties":{"code":"101FWFWN229","label":"Rivers Leri and Ceulan at Tal y Bont","river":"Leri, Ceulan","area":"NRW Northern","type":"warning"}},{"type":"Feature","geometry":{"type":"Point","coordinates":[-2.72063,51.81966]},"properties":{"code":"103FWF010a","label":"River Monnow at Forge Road, Osbaston","river":"River Monnow","area":"NRW South East","type":"warning"}},{"type":"Feature","geometry":{"type":"Point","coordinates":[-5.12575,51.85666]},"properties":{"code":"102FWC440A","label":"Tidal area at Newgale","river":"Irish Sea","area":"NRW South West","type":"warning"}},{"type":"Feature","geometry":{"type":"Point","coordinates":[-3.08114,52.71158]},"properties":{"code":"101FWFWN269","label":"River Severn in the Pool Quay Area","river":"River Severn","area":"NRW Northern","type":"warning"}},{"type":"Feature","geometry":{"type":"Point","coordinates":[-4.05638,51.71107]},"properties":{"code":"102FWT415B","label":"Tidal area at Hendy","river":"Irish Sea","area":"NRW South West","type":"warning"}},{"type":"Feature","geometry":{"type":"Point","coordinates":[-3.58,53.28798]},"properties":{"code":"101FWFWN225","label":"River Gele at Abergele and Pensarn","river":"River Gele","area":"NRW Northern","type":"warning"}},{"type":"Feature","geometry":{"type":"Point","coordinates":[-3.38974,51.52765]},"properties":{"code":"103FWF197004","label":"River Ely at Pontyclun","river":"River Ely","area":"NRW South East","type":"warning"}},{"type":"Feature","geometry":{"type":"Point","coordinates":[-3.41536,52.21595]},"properties":{"code":"103FWF004","label":"River Ithon at Disserth","river":"River Ithon","area":"NRW South East","type":"warning"}},{"type":"Feature","geometry":{"type":"Point","coordinates":[-3.82539,53.15079]},"properties":{"code":"101FWFWN219","label":"River Conwy at Trefriw","river":"Conwy","area":"NRW Northern","type":"warning"}},{"type":"Feature","geometry":{"type":"Point","coordinates":[-4.06858,52.37726]},"properties":{"code":"102FWF163A","label":"River Ystwyth at Rhydyfelin and Llanfarian","river":"Ystwyth","area":"NRW South West","type":"warning"}},{"type":"Feature","geometry":{"type":"Point","coordinates":[-3.14423,52.66057]},"properties":{"code":"101FWFWN267","label":"Lledan Brook in Welshpool","river":"Lledan Brook","area":"NRW Northern","type":"warning"}},{"type":"Feature","geometry":{"type":"Point","coordinates":[-3.37013,51.67601]},"properties":{"code":"103FWF197134","label":"River Cynon at Mountain Ash","river":"River Cynon","area":"NRW South East","type":"warning"}},{"type":"Feature","geometry":{"type":"Point","coordinates":[-3.4141,52.51582]},"properties":{"code":"101FWFWN256","label":"River Severn in the Caersws Area","river":"River Severn","area":"NRW Northern","type":"warning"}},{"type":"Feature","geometry":{"type":"Point","coordinates":[-2.72709,51.80909]},"properties":{"code":"103FWF010b","label":"River Monnow at Watery Lane, Over Monnow","river":"River Monnow","area":"NRW South East","type":"warning"}},{"type":"Feature","geometry":{"type":"Point","coordinates":[-3.58718,51.54122]},"properties":{"code":"102FWF102A","label":"River Llynfi at Aberkenfig","river":"Llynfi","area":"NRW South West","type":"warning"}},{"type":"Feature","geometry":{"type":"Point","coordinates":[-3.15329,52.63181]},"properties":{"code":"101FWFWN265","label":"River Severn in the Cilcewydd Area","river":"River Severn","area":"NRW Northern","type":"warning"}},{"type":"Feature","geometry":{"type":"Point","coordinates":[-3.16554,52.61876]},"properties":{"code":"101FWFWN264","label":"River Severn at Trehelig","river":"River Severn","area":"NRW Northern","type":"warning"}},{"type":"Feature","geometry":{"type":"Point","coordinates":[-3.55969,53.30073]},"properties":{"code":"101FWTWN405","label":"Towyn, Belgrano and Pensarn","river":"Irish Sea","area":"NRW Northern","type":"warning"}},{"type":"Feature","geometry":{"type":"Point","coordinates":[-3.27037,51.48319]},"properties":{"code":"103FWF073","label":"River Ely at St. Fagans","river":"River Ely","area":"NRW South East","type":"warning"}},{"type":"Feature","geometry":{"type":"Point","coordinates":[-3.11636,51.54552]},"properties":{"code":"103FWF035","label":"River Rhymney at Began","river":"River Rhymney","area":"NRW South East","type":"warning"}},{"type":"Feature","geometry":{"type":"Point","coordinates":[-4.07117,51.66632]},"properties":{"code":"102FWT414A","label":"Tidal area at Loughor","river":"Irish Sea","area":"NRW South West","type":"warning"}},{"type":"Feature","geometry":{"type":"Point","coordinates":[-3.9151,51.66152]},"properties":{"code":"102FWF123B","label":"River Tawe at Swansea Enterprise Park, extending to the area near Morfa Shopping Park","river":"Tawe","area":"NRW South West","type":"warning"}},{"type":"Feature","geometry":{"type":"Point","coordinates":[-3.19167,53.19271]},"properties":{"code":"101FWFWN212","label":"River Alyn at Rhydymwyn","river":"River Alyn","area":"NRW Northern","type":"warning"}},{"type":"Feature","geometry":{"type":"Point","coordinates":[-3.93595,51.61727]},"properties":{"code":"102FWF123C","label":"River Tawe at Swansea Marina and Parc Tawe","river":"Tawe","area":"NRW South West","type":"warning"}},{"type":"Feature","geometry":{"type":"Point","coordinates":[-5.16927,51.70835]},"properties":{"code":"102FWC438A","label":"Tidal area at Dale","river":"Irish Sea","area":"NRW South West","type":"warning"}},{"type":"Feature","geometry":{"type":"Point","coordinates":[-3.26461,51.53945]},"properties":{"code":"103FWF046","label":"River Taff at Taffs Well and Industrial Areas of Gwaelod y Garth","river":"River Taff","area":"NRW South East","type":"warning"}},{"type":"Feature","geometry":{"type":"Point","coordinates":[-3.27823,51.56162]},"properties":{"code":"103FWF602002","label":"River Taff at Nantgarw","river":"River Taff","area":"NRW South East","type":"warning"}},{"type":"Feature","geometry":{"type":"Point","coordinates":[-3.13165,53.25183]},"properties":{"code":"101FWTWN530","label":"Flint","river":"Dee Estuary","area":"NRW Northern","type":"warning"}},{"type":"Feature","geometry":{"type":"Point","coordinates":[-4.94537,51.6953]},"properties":{"code":"102FWC435A","label":"Tidal area at Front Street, Pembroke Dock","river":"Irish Sea","area":"NRW South West","type":"warning"}},{"type":"Feature","geometry":{"type":"Point","coordinates":[-3.80234,51.60573]},"properties":{"code":"102FWT407A","label":"Tidal area at Baglan Moors and Aberavon","river":"Irish Sea","area":"NRW South West","type":"warning"}},{"type":"Feature","geometry":{"type":"Point","coordinates":[-3.98703,51.87662]},"properties":{"code":"102FWF132A","label":"River Towy between Llandeilo and Llangadog","river":"Towy","area":"NRW South West","type":"warning"}},{"type":"Feature","geometry":{"type":"Point","coordinates":[-3.57744,51.55001]},"properties":{"code":"102FWF113A","label":"River Ogmore at Abergarw","river":"Ogmore","area":"NRW South West","type":"warning"}},{"type":"Feature","geometry":{"type":"Point","coordinates":[-4.53174,51.80005]},"properties":{"code":"102FWF141A","label":"River Hydfron at Llanddowror","river":"Hydfron","area":"NRW South West","type":"warning"}},{"type":"Feature","geometry":{"type":"Point","coordinates":[-3.92932,52.21952]},"properties":{"code":"102FWF149A","label":"River Brennig at Tregaron","river":"Brennig","area":"NRW South West","type":"warning"}},{"type":"Feature","geometry":{"type":"Point","coordinates":[-4.10265,51.67049]},"properties":{"code":"102FWT416A","label":"Tidal area at Bynea, Llanelli","river":"Carmarthenshire coast","area":"NRW South West","type":"warning"}},{"type":"Feature","geometry":{"type":"Point","coordinates":[-2.76983,51.59106]},"properties":{"code":"103FWCt02","label":"Coast at the Caldicot Levels","river":"Coast","area":"NRW South East","type":"warning"}},{"type":"Feature","geometry":{"type":"Point","coordinates":[-2.95392,51.57887]},"properties":{"code":"103FWTt09","label":"Usk Estuary at South Liswerry","river":"Usk Estuary","area":"NRW South East","type":"warning"}},{"type":"Feature","geometry":{"type":"Point","coordinates":[-3.4894,51.51689]},"properties":{"code":"102FWF106C","label":"River Ewenny at Business Park, Pencoed","river":"Ewenny","area":"NRW South West","type":"warning"}},{"type":"Feature","geometry":{"type":"Point","coordinates":[-3.31923,53.11814]},"properties":{"code":"101FWFWN227","label":"River Clwyd at Glasdir, Ruthin","river":"Clwyd","area":"NRW Northern","type":"warning"}},{"type":"Feature","geometry":{"type":"Point","coordinates":[-4.18371,51.68816]},"properties":{"code":"102FWF181A","label":"River Dulais at College Campus and Sandy Road, Pwll","river":"Dulais","area":"NRW South West","type":"warning"}},{"type":"Feature","geometry":{"type":"Point","coordinates":[-3.79208,51.77791]},"properties":{"code":"102FWF116A","label":"River Twrch at Cwmtwrch","river":"Twrch","area":"NRW South West","type":"warning"}},{"type":"Feature","geometry":{"type":"Point","coordinates":[-4.08156,52.41212]},"properties":{"code":"102FWT456C","label":"Tidal area at Trefechan, Aberystwyth","river":"Irish Sea","area":"NRW South West","type":"warning"}},{"type":"Feature","geometry":{"type":"Point","coordinates":[-2.67578,51.70362]},"properties":{"code":"103FWTt01","label":"Wye Estuary near Tintern","river":"Wye Estuary","area":"NRW South East","type":"warning"}},{"type":"Feature","geometry":{"type":"Point","coordinates":[-3.99859,52.43789]},"properties":{"code":"102FWF166A","label":"Tributaries of the River Clarach at Penrhyncoch","river":"Clarach, Silo","area":"NRW South West","type":"warning"}},{"type":"Feature","geometry":{"type":"Point","coordinates":[-3.5864,51.49912]},"properties":{"code":"102FWF105B","label":"River Ogmore at Newbridge Fields, Bridgend","river":"Ogmore","area":"NRW South West","type":"warning"}},{"type":"Feature","geometry":{"type":"Point","coordinates":[-3.20507,52.04635]},"properties":{"code":"103FWF003","label":"River Wye at Glasbury","river":"River Wye","area":"NRW South East","type":"warning"}},{"type":"Feature","geometry":{"type":"Point","coordinates":[-3.13383,53.16698]},"properties":{"code":"101FWFWN214","label":"River Alyn at Mold","river":"Alyn","area":"NRW Northern","type":"warning"}},{"type":"Feature","geometry":{"type":"Point","coordinates":[-3.46811,51.40506]},"properties":{"code":"102FWF114A","label":"River Hoddnant at Boverton","river":"Hoddnant","area":"NRW South West","type":"warning"}},{"type":"Feature","geometry":{"type":"Point","coordinates":[-3.18698,52.57875]},"properties":{"code":"101FWFWN262","label":"River Severn in the Caerhowel and Garthmyl Area","river":"River Severn","area":"NRW Northern","type":"warning"}},{"type":"Feature","geometry":{"type":"Point","coordinates":[-3.03247,52.75098]},"properties":{"code":"101FWFWN271","label":"River Severn in the Llandrinio Area","river":"River Severn","area":"NRW Northern","type":"warning"}},{"type":"Feature","geometry":{"type":"Point","coordinates":[-4.12907,52.92233]},"properties":{"code":"101FWTWN500","label":"Porthmadog Harbour","river":"Irish Sea","area":"NRW Northern","type":"warning"}},{"type":"Feature","geometry":{"type":"Point","coordinates":[-2.9759,51.60684]},"properties":{"code":"103FWTt07","label":"Usk Estuary at St Julians","river":"Usk Estuary","area":"NRW South East","type":"warning"}},{"type":"Feature","geometry":{"type":"Point","coordinates":[-3.76071,53.31488]},"properties":{"code":"101FWTWN440","label":"Penrhyn Bay","river":"Irish Sea","area":"NRW Northern","type":"warning"}},{"type":"Feature","geometry":{"type":"Point","coordinates":[-3.48931,51.52861]},"properties":{"code":"102FWF106B","label":"River Ewenny at Penprysg, Pencoed","river":"Ewenny","area":"NRW South West","type":"warning"}},{"type":"Feature","geometry":{"type":"Point","coordinates":[-3.88975,51.69029]},"properties":{"code":"102FWF120B","label":"River Tawe at Clydach, Glais and Ynystawe","river":"Tawe","area":"NRW South West","type":"warning"}},{"type":"Feature","geometry":{"type":"Point","coordinates":[-4.07807,51.69549]},"properties":{"code":"102FWT415A","label":"Tidal area at Llangennech","river":"Irish Sea","area":"NRW South West","type":"warning"}},{"type":"Feature","geometry":{"type":"Point","coordinates":[-3.96854,52.40395]},"properties":{"code":"102FWF165A","label":"River Melindwr at Capel Bangor","river":"Melindwr","area":"NRW South West","type":"warning"}},{"type":"Feature","geometry":{"type":"Point","coordinates":[-2.70646,51.80795]},"properties":{"code":"103FWF011","label":"River Wye at Monmouth, undefended areas","river":"River Wye","area":"NRW South East","type":"warning"}},{"type":"Feature","geometry":{"type":"Point","coordinates":[-4.38427,52.90467]},"properties":{"code":"101FWFWN222","label":"River Erch at Abererch","river":"River Erch","area":"NRW Northern","type":"warning"}},{"type":"Feature","geometry":{"type":"Point","coordinates":[-4.14482,53.21433]},"properties":{"code":"101FWFWN221","label":"River Adda at Bangor","river":"River Adda","area":"NRW Northern","type":"warning"}},{"type":"Feature","geometry":{"type":"Point","coordinates":[-4.30668,51.85477]},"properties":{"code":"102FWB134A","label":"River Towy at Carmarthen Quay, Carmarthen","river":"Towy","area":"NRW South West","type":"warning"}},{"type":"Feature","geometry":{"type":"Point","coordinates":[-4.27417,53.13734]},"properties":{"code":"101FWTWN610","label":"Caernarfon Harbour","river":"Menai Strait","area":"NRW Northern","type":"warning"}},{"type":"Feature","geometry":{"type":"Point","coordinates":[-3.18607,51.47442]},"properties":{"code":"103FWF050","label":"River Taff at Cardiff City","river":"River Taff","area":"NRW South East","type":"warning"}},{"type":"Feature","geometry":{"type":"Point","coordinates":[-4.9417,51.69566]},"properties":{"code":"102FWC435B","label":"Tidal area at Pembroke Dock","river":"Irish Sea","area":"NRW South West","type":"warning"}},{"type":"Feature","geometry":{"type":"Point","coordinates":[-4.13279,51.63163]},"properties":{"code":"102FWC412A","label":"Tidal area at Crofty","river":"Irish Sea","area":"NRW South West","type":"warning"}},{"type":"Feature","geometry":{"type":"Point","coordinates":[-4.1423,51.86484]},"properties":{"code":"102FWF133A","label":"River Towy, isolated properties between Llandeilo and Abergwili","river":"Towy","area":"NRW South West","type":"warning"}},{"type":"Feature","geometry":{"type":"Point","coordinates":[-2.67322,51.64282]},"properties":{"code":"103FWTt01a","label":"Wye Estuary at Chepstow","river":"Wye Estuary","area":"NRW South East","type":"warning"}},{"type":"Feature","geometry":{"type":"Point","coordinates":[-4.37817,51.77639]},"properties":{"code":"102FWC424A","label":"Tidal area at Llanstephan North","river":"Carmarthenshire coast","area":"NRW South West","type":"warning"}},{"type":"Feature","geometry":{"type":"Point","coordinates":[-3.52323,53.31148]},"properties":{"code":"101FWTWN390","label":"Kinmel Bay Promenade and Sandy Cove","river":"Irish Sea","area":"NRW Northern","type":"warning"}},{"type":"Feature","geometry":{"type":"Point","coordinates":[-3.47665,53.28969]},"properties":{"code":"101FWFWN208","label":"River Elwy from Spring Gardens Bridge to Rhuddlan","river":"River Elwy","area":"NRW Northern","type":"warning"}},{"type":"Feature","geometry":{"type":"Point","coordinates":[-4.10899,51.64288]},"properties":{"code":"102FWC413A","label":"Tidal area at Pen-Clawdd","river":"Irish Sea","area":"NRW South West","type":"warning"}},{"type":"Feature","geometry":{"type":"Point","coordinates":[-3.31412,53.11767]},"properties":{"code":"101FWFWN211","label":"River Clwyd at Ruthin Town","river":"Clwyd","area":"NRW Northern","type":"warning"}},{"type":"Feature","geometry":{"type":"Point","coordinates":[-3.77736,51.67793]},"properties":{"code":"102FWF112A","label":"River Neath at Aberdulais","river":"Neath","area":"NRW South West","type":"warning"}},{"type":"Feature","geometry":{"type":"Point","coordinates":[-2.96714,51.6258]},"properties":{"code":"103FWF017","label":"River Lwyd at Ponthir","river":"River Lwyd","area":"NRW South East","type":"warning"}},{"type":"Feature","geometry":{"type":"Point","coordinates":[-3.8096,53.1595]},"properties":{"code":"101FWFWN205","label":"River Conwy at Gwydir Road","river":"Conwy","area":"NRW Northern","type":"warning"}},{"type":"Feature","geometry":{"type":"Point","coordinates":[-3.76266,53.30466]},"properties":{"code":"101FWTWN445","label":"Penrhyn Bay, parts of Rhos-on-Sea and Mochdre","river":"Irish Sea","area":"NRW Northern","type":"warning"}},{"type":"Feature","geometry":{"type":"Point","coordinates":[-3.3539,51.60453]},"properties":{"code":"103FWF197167","label":"River Rhondda at Hopkinstown","river":"Rhondda","area":"NRW South East","type":"warning"}},{"type":"Feature","geometry":{"type":"Point","coordinates":[-4.96722,51.80167]},"properties":{"code":"102FWB145A","label":"River Western Cleddau at Quayside and Riverside Arcade, Haverfordwest","river":"Western Cleddau","area":"NRW South West","type":"warning"}},{"type":"Feature","geometry":{"type":"Point","coordinates":[-4.0625,52.72724]},"properties":{"code":"101FWTWN515","label":"Barmouth Heol y Llan","river":"Irish Sea","area":"NRW Northern","type":"warning"}},{"type":"Feature","geometry":{"type":"Point","coordinates":[-3.57545,51.48545]},"properties":{"code":"102FWB108A","label":"River Ewenny at Ewenny Village","river":"Ewenny","area":"NRW South West","type":"warning"}},{"type":"Feature","geometry":{"type":"Point","coordinates":[-3.24895,51.88964]},"properties":{"code":"103FWF013","label":"River Usk from Brecon to Glangrwyne","river":"River Usk","area":"NRW South East","type":"warning"}},{"type":"Feature","geometry":{"type":"Point","coordinates":[-4.61207,51.81608]},"properties":{"code":"102FWF140C","label":"River Taf at Station Road, Whitland","river":"Taf, Gronw","area":"NRW South West","type":"warning"}},{"type":"Feature","geometry":{"type":"Point","coordinates":[-3.39882,52.15273]},"properties":{"code":"103FWF001","label":"River Wye at Builth Wells","river":"River Wye","area":"NRW South East","type":"warning"}},{"type":"Feature","geometry":{"type":"Point","coordinates":[-3.53279,51.49809]},"properties":{"code":"102FWF107A","label":"River Ewenny at Waterton","river":"Ewenny","area":"NRW South West","type":"warning"}},{"type":"Feature","geometry":{"type":"Point","coordinates":[-4.03949,52.5446]},"properties":{"code":"101FWTWN660","label":"Aberdyfi","river":"Irish Sea","area":"NRW Northern","type":"warning"}},{"type":"Feature","geometry":{"type":"Point","coordinates":[-3.79728,51.75151]},"properties":{"code":"102FWF121A","label":"River Tawe at Godre'r-graig","river":"Tawe","area":"NRW South West","type":"warning"}},{"type":"Feature","geometry":{"type":"Point","coordinates":[-3.54106,51.59783]},"properties":{"code":"102FWF103A","label":"River Ogmore at Ogmore Vale","river":"Ogmore","area":"NRW South West","type":"warning"}},{"type":"Feature","geometry":{"type":"Point","coordinates":[-4.001,51.80466]},"properties":{"code":"102FWF125A","label":"River Loughor at Ammanford and Llandybie","river":"Loughor","area":"NRW South West","type":"warning"}},{"type":"Feature","geometry":{"type":"Point","coordinates":[-3.20227,51.58727]},"properties":{"code":"103FWF197205","label":"River Rhymney at Caerphilly","river":"River Rhymney","area":"NRW South East","type":"warning"}},{"type":"Feature","geometry":{"type":"Point","coordinates":[-4.08571,51.69694]},"properties":{"code":"102FWB180A","label":"River Morlais at Llangennech","river":"Morlais","area":"NRW South West","type":"warning"}},{"type":"Feature","geometry":{"type":"Point","coordinates":[-4.05567,52.69536]},"properties":{"code":"101FWTWN520","label":"Fairbourne Seafront","river":"Irish Sea","area":"NRW Northern","type":"warning"}},{"type":"Feature","geometry":{"type":"Point","coordinates":[-3.33304,51.65255]},"properties":{"code":"103FWF197135","label":"River Cynon at Abercynon","river":"River Cynon","area":"NRW South East","type":"warning"}},{"type":"Feature","geometry":{"type":"Point","coordinates":[-3.09263,53.14928]},"properties":{"code":"101FWFWN215","label":"River Alyn at Llong","river":"Alyn","area":"NRW Northern","type":"warning"}},{"type":"Feature","geometry":{"type":"Point","coordinates":[-4.32284,53.16509]},"properties":{"code":"101FWFWN233","label":"Rivers Braint and Rhyd y Valley at Dwyran","river":"River Braint, River Rhyd y Valley","area":"NRW Northern","type":"warning"}},{"type":"Feature","geometry":{"type":"Point","coordinates":[-3.23319,51.63918]},"properties":{"code":"103FWF197202","label":"River Rhymney at Ystrad Mynach","river":"River Rhymney","area":"NRW South East","type":"warning"}},{"type":"Feature","geometry":{"type":"Point","coordinates":[-3.87489,51.96799]},"properties":{"code":"102FWF132B","label":"River Towy at Llanwrda","river":"Towy","area":"NRW South West","type":"warning"}},{"type":"Feature","geometry":{"type":"Point","coordinates":[-4.0753,52.40664]},"properties":{"code":"102FWB456B","label":"Tidal area at Aberystwyth Holiday Village, Aberystwyth","river":"Irish Sea","area":"NRW South West","type":"warning"}},{"type":"Feature","geometry":{"type":"Point","coordinates":[-5.08501,51.68367]},"properties":{"code":"102FWT434A","label":"Tidal area at Angle","river":"Irish Sea","area":"NRW South West","type":"warning"}},{"type":"Feature","geometry":{"type":"Point","coordinates":[-4.04749,52.50276]},"properties":{"code":"101FWTWN670","label":"Tidal area at Borth","river":"Irish Sea","area":"NRW Northern","type":"warning"}},{"type":"Feature","geometry":{"type":"Point","coordinates":[-3.84051,53.31967]},"properties":{"code":"101FWTWN430","label":"Llandudno West Shore","river":"Irish Sea","area":"NRW Northern","type":"warning"}},{"type":"Feature","geometry":{"type":"Point","coordinates":[-3.18395,51.62061]},"properties":{"code":"103FWF197310","label":"River Sirhowy at Ynysddu","river":"Sirhowy","area":"NRW South East","type":"warning"}},{"type":"Feature","geometry":{"type":"Point","coordinates":[-3.85176,51.72079]},"properties":{"code":"102FWF119B","label":"River Tawe at Industrial Estate and Upper Clydach, Pontardawe","river":"Tawe","area":"NRW South West","type":"warning"}},{"type":"Feature","geometry":{"type":"Point","coordinates":[-4.06893,52.43479]},"properties":{"code":"102FWB159A","label":"River Clarach at Llangorwen","river":"Clarach","area":"NRW South West","type":"warning"}},{"type":"Feature","geometry":{"type":"Point","coordinates":[-4.30691,51.85469]},"properties":{"code":"102FWB422A","label":"Tidal area at Carmarthen Quay","river":"Irish Sea","area":"NRW South West","type":"warning"}},{"type":"Feature","geometry":{"type":"Point","coordinates":[-4.12078,53.23256]},"properties":{"code":"101FWTWN570","label":"Bangor","river":"Irish Sea","area":"NRW Northern","type":"warning"}},{"type":"Feature","geometry":{"type":"Point","coordinates":[-4.46455,52.03906]},"properties":{"code":"102FWF154A","label":"River Teifi at Newcastle Emlyn","river":"Teifi","area":"NRW South West","type":"warning"}},{"type":"Feature","geometry":{"type":"Point","coordinates":[-3.32531,51.62656]},"properties":{"code":"103FWF042","label":"River Taff at Cilfynydd","river":"River Taff","area":"NRW South East","type":"warning"}},{"type":"Feature","geometry":{"type":"Point","coordinates":[-3.26874,52.52827]},"properties":{"code":"101FWFWN260","label":"River Severn at Aberbechan","river":"River Severn","area":"NRW Northern","type":"warning"}},{"type":"Feature","geometry":{"type":"Point","coordinates":[-3.14346,51.49738]},"properties":{"code":"103FWT198217","label":"Tidal Rhymney at Industrial area near Rumney Bridge, including Roath","river":"River Rhymney","area":"NRW South East","type":"warning"}},{"type":"Feature","geometry":{"type":"Point","coordinates":[-4.13791,51.90283]},"properties":{"code":"102FWF138B","label":"River Cothi at Pontargothi and Pontynyswen","river":"Cothi","area":"NRW South West","type":"warning"}},{"type":"Feature","geometry":{"type":"Point","coordinates":[-3.7392,53.31043]},"properties":{"code":"101FWTWN450","label":"Rhos-on-Sea Seafront at Rhos Point","river":"Irish Sea","area":"NRW Northern","type":"warning"}},{"type":"Feature","geometry":{"type":"Point","coordinates":[-2.98157,53.21457]},"properties":{"code":"101FWTWN310","label":"Northern Embankment","river":"Dee Estuary","area":"NRW Northern","type":"warning"}},{"type":"Feature","geometry":{"type":"Point","coordinates":[-3.22986,51.62832]},"properties":{"code":"103FWF197203","label":"River Rhymney at Dyffryn Industrial Estate","river":"River Rhymney","area":"NRW South East","type":"warning"}},{"type":"Feature","geometry":{"type":"Point","coordinates":[-4.16191,51.68179]},"properties":{"code":"102FWF130B","label":"River Lliedi at town centre, Llanelli","river":"Lliedi","area":"NRW South West","type":"warning"}},{"type":"Feature","geometry":{"type":"Point","coordinates":[-3.99132,51.5739]},"properties":{"code":"102FWC411A","label":"Tidal area at Mumbles","river":"Irish Sea","area":"NRW South West","type":"warning"}},{"type":"Feature","geometry":{"type":"Point","coordinates":[-4.10598,53.01286]},"properties":{"code":"101FWFWN207","label":"Rivers Colwyn and Glaslyn at Beddgelert","river":"River Glaslyn and River Colwyn","area":"NRW Northern","type":"warning"}},{"type":"Feature","geometry":{"type":"Point","coordinates":[-4.19385,51.68591]},"properties":{"code":"102FWF181B","label":"River Dulais at Stepney Road and Bassett Terrace, Pwll","river":"Dulais","area":"NRW South West","type":"warning"}},{"type":"Feature","geometry":{"type":"Point","coordinates":[-3.37213,52.98076]},"properties":{"code":"101FWFWN202","label":"River Dee communities from Llanuwchllyn to Llangollen","river":"River Dee","area":"NRW Northern","type":"warning"}},{"type":"Feature","geometry":{"type":"Point","coordinates":[-3.44949,51.46117]},"properties":{"code":"103FWF197500","label":"River Thaw at Cowbridge","river":"River Thaw","area":"NRW South East","type":"warning"}},{"type":"Feature","geometry":{"type":"Point","coordinates":[-3.45491,51.63213]},"properties":{"code":"103FWF197163","label":"Rhondda Fawr at Gelli","river":"Rhondda","area":"NRW South East","type":"warning"}},{"type":"Feature","geometry":{"type":"Point","coordinates":[-3.70089,51.71173]},"properties":{"code":"102FWF110A","label":"River Neath at Resolven","river":"Neath","area":"NRW South West","type":"warning"}},{"type":"Feature","geometry":{"type":"Point","coordinates":[-4.61171,51.81895]},"properties":{"code":"102FWF140B","label":"Rivers Taf and Gronw east of St Johns Street, Whitland","river":"Taf, Gronw","area":"NRW South West","type":"warning"}},{"type":"Feature","geometry":{"type":"Point","coordinates":[-4.59721,52.06138]},"properties":{"code":"102FWF154C","label":"River Teifi at Llechryd","river":"Teifi","area":"NRW South West","type":"warning"}},{"type":"Feature","geometry":{"type":"Point","coordinates":[-3.61559,51.47885]},"properties":{"code":"102FWB402A","label":"Tidal area at Ogmore Castle","river":"Irish Sea","area":"NRW South West","type":"warning"}},{"type":"Feature","geometry":{"type":"Point","coordinates":[-4.01454,52.50471]},"properties":{"code":"101FWTWN680","label":"Tidal area at Cors Fochno","river":"Irish Sea","area":"NRW Northern","type":"warning"}},{"type":"Feature","geometry":{"type":"Point","coordinates":[-2.94838,53.10656]},"properties":{"code":"101FWFWN217","label":"River Alyn at Rossett","river":"River Alyn","area":"NRW Northern","type":"warning"}},{"type":"Feature","geometry":{"type":"Point","coordinates":[-3.0415,52.34386]},"properties":{"code":"101FWFWN272","label":"River Teme at Knighton","river":"River Teme","area":"NRW Northern","type":"warning"}},{"type":"Feature","geometry":{"type":"Point","coordinates":[-4.61518,51.81339]},"properties":{"code":"102FWF140D","label":"River Taf at Trevaughan, Whitland","river":"Taf, Gronw","area":"NRW South West","type":"warning"}},{"type":"Feature","geometry":{"type":"Point","coordinates":[-3.9103,51.67484]},"properties":{"code":"102FWF123A","label":"River Tawe at Ynysforgan, Swansea","river":"Tawe","area":"NRW South West","type":"warning"}},{"type":"Feature","geometry":{"type":"Point","coordinates":[-4.10003,53.25869]},"properties":{"code":"101FWTWN480","label":"Beaumaris","river":"Irish Sea","area":"NRW Northern","type":"warning"}},{"type":"Feature","geometry":{"type":"Point","coordinates":[-4.03509,51.71619]},"properties":{"code":"102FWF126A","label":"River Dulais at Pontarddulais","river":"Dulais","area":"NRW South West","type":"warning"}},{"type":"Feature","geometry":{"type":"Point","coordinates":[-4.49398,51.81042]},"properties":{"code":"102FWT426A","label":"Tidal area at St Clears","river":"Irish Sea","area":"NRW South West","type":"warning"}},{"type":"Feature","geometry":{"type":"Point","coordinates":[-3.59834,52.90597]},"properties":{"code":"101FWFWN203","label":"Town of Bala","river":"River Dee","area":"NRW Northern","type":"warning"}},{"type":"Feature","geometry":{"type":"Point","coordinates":[-4.10709,52.60037]},"properties":{"code":"101FWTWN650","label":"Tywyn","river":"Irish Sea","area":"NRW Northern","type":"warning"}},{"type":"Feature","geometry":{"type":"Point","coordinates":[-4.30932,51.73748]},"properties":{"code":"102FWB129A","label":"River Gwendraeth Fach at Kidwelly","river":"Gwendraeth Fach","area":"NRW South West","type":"warning"}},{"type":"Feature","geometry":{"type":"Point","coordinates":[-4.13453,51.68376]},"properties":{"code":"102FWF127B","label":"River Dafen at Halfway, Llanelli","river":"Dafen","area":"NRW South West","type":"warning"}},{"type":"Feature","geometry":{"type":"Point","coordinates":[-4.13663,51.67477]},"properties":{"code":"102FWF127A","label":"River Dafen at Trostre, Llanelli","river":"Dafen","area":"NRW South West","type":"warning"}},{"type":"Feature","geometry":{"type":"Point","coordinates":[-4.12756,51.69295]},"properties":{"code":"102FWF127C","label":"River Dafen at Dafen, Llanelli","river":"Dafen","area":"NRW South West","type":"warning"}},{"type":"Feature","geometry":{"type":"Point","coordinates":[-4.65329,51.73298]},"properties":{"code":"102FWC432A","label":"Tidal area at Amroth","river":"Irish Sea","area":"NRW South West","type":"warning"}},{"type":"Feature","geometry":{"type":"Point","coordinates":[-3.58586,51.52905]},"properties":{"code":"102FWF105A","label":"River Ogmore at Pen y Fai, Bridgend","river":"Ogmore","area":"NRW South West","type":"warning"}},{"type":"Feature","geometry":{"type":"Point","coordinates":[-3.26268,52.7125]},"properties":{"code":"101FWFWN251","label":"River Vyrnwy at Meifod","river":"River Vyrnwy","area":"NRW Northern","type":"warning"}},{"type":"Feature","geometry":{"type":"Point","coordinates":[-3.05481,51.71536]},"properties":{"code":"103FWF197311","label":"River Lwyd at Pontnewynydd","river":"River Lwyd","area":"NRW South East","type":"warning"}},{"type":"Feature","geometry":{"type":"Point","coordinates":[-2.92438,51.62363]},"properties":{"code":"103FWTt05","label":"Usk Estuary at Caerleon","river":"Usk Estuary","area":"NRW South East","type":"warning"}},{"type":"Feature","geometry":{"type":"Point","coordinates":[-4.07657,52.43448]},"properties":{"code":"102FWB458A","label":"Tidal area at Clarach Bay","river":"Irish Sea","area":"NRW South West","type":"warning"}},{"type":"Feature","geometry":{"type":"Point","coordinates":[-3.82855,53.31762]},"properties":{"code":"101FWTWN425","label":"Llandudno","river":"Irish Sea","area":"NRW Northern","type":"warning"}},{"type":"Feature","geometry":{"type":"Point","coordinates":[-2.70962,51.81483]},"properties":{"code":"103FWF011a","label":"Rivers Wye and Monnow at Monmouth, defended areas","river":"River Wye","area":"NRW South East","type":"warning"}},{"type":"Feature","geometry":{"type":"Point","coordinates":[-3.63576,51.74034]},"properties":{"code":"102FWF111B","label":"River Neath at Maes y Marchog and Bethel Road, Glyn-Neath","river":"Neath","area":"NRW South West","type":"warning"}},{"type":"Feature","geometry":{"type":"Point","coordinates":[-3.74148,53.31057]},"properties":{"code":"101FWTWN455","label":"Rhos-on-Sea Penrhyn Avenue","river":"Irish Sea","area":"NRW Northern","type":"warning"}},{"type":"Feature","geometry":{"type":"Point","coordinates":[-4.4976,51.82019]},"properties":{"code":"102FWF143A","label":"River Cynin at St Clears","river":"Cynin","area":"NRW South West","type":"warning"}},{"type":"Feature","geometry":{"type":"Point","coordinates":[-3.32807,52.51199]},"properties":{"code":"101FWFWN258","label":"River Severn at Newtown","river":"River Severn","area":"NRW Northern","type":"warning"}},{"type":"Feature","geometry":{"type":"Point","coordinates":[-3.0138,51.6669]},"properties":{"code":"103FWF197312","label":"River Lwyd at Croesyceiliog","river":"River Lwyd","area":"NRW South East","type":"warning"}},{"type":"Feature","geometry":{"type":"Point","coordinates":[-2.79053,51.87936]},"properties":{"code":"103FWF010","label":"River Monnow at Skenfrith","river":"River Monnow","area":"NRW South East","type":"warning"}},{"type":"Feature","geometry":{"type":"Point","coordinates":[-4.43677,52.88041]},"properties":{"code":"101FWTWN620","label":"Pwllheli","river":"Irish Sea","area":"NRW Northern","type":"warning"}},{"type":"Feature","geometry":{"type":"Point","coordinates":[-3.34751,51.71219]},"properties":{"code":"103FWF197102","label":"River Taff at Troedyrhiw","river":"River Taff","area":"NRW South East","type":"warning"}},{"type":"Feature","geometry":{"type":"Point","coordinates":[-3.33067,51.60098]},"properties":{"code":"103FWF043","label":"River Taff at Pontypridd","river":"River Taff","area":"NRW South East","type":"warning"}},{"type":"Feature","geometry":{"type":"Point","coordinates":[-3.19235,53.28211]},"properties":{"code":"101FWTWN460","label":"Greenfield Business Park to Bagillt","river":"Irish Sea","area":"NRW Northern","type":"warning"}},{"type":"Feature","geometry":{"type":"Point","coordinates":[-4.14213,51.69402]},"properties":{"code":"102FWF130A","label":"River Lliedi at Felinfoel, Llanelli","river":"Lliedi","area":"NRW South West","type":"warning"}},{"type":"Feature","geometry":{"type":"Point","coordinates":[-4.65742,52.08258]},"properties":{"code":"102FWT452A","label":"Tidal area at Cardigan","river":"Irish Sea","area":"NRW South West","type":"warning"}},{"type":"Feature","geometry":{"type":"Point","coordinates":[-3.3406,53.34112]},"properties":{"code":"101FWTWN345","label":"Gronant to Tanlan","river":"Irish Sea","area":"NRW Northern","type":"warning"}},{"type":"Feature","geometry":{"type":"Point","coordinates":[-3.50367,51.51059]},"properties":{"code":"102FWF106A","label":"River Ewenny at Cwrt Gwilym, Pencoed","river":"Ewenny","area":"NRW South West","type":"warning"}},{"type":"Feature","geometry":{"type":"Point","coordinates":[-3.22518,51.60819]},"properties":{"code":"103FWF029","label":"River Rhymney at Llanbradach","river":"River Rhymney","area":"NRW South East","type":"warning"}},{"type":"Feature","geometry":{"type":"Point","coordinates":[-3.43171,52.51862]},"properties":{"code":"101FWFWN257","label":"River Severn at Caersws","river":"River Severn","area":"NRW Northern","type":"warning"}},{"type":"Feature","geometry":{"type":"Point","coordinates":[-3.78595,51.59408]},"properties":{"code":"102FWF109B","label":"River Afan at Port Talbot","river":"Afan","area":"NRW South West","type":"warning"}},{"type":"Feature","geometry":{"type":"Point","coordinates":[-3.39908,51.3848]},"properties":{"code":"103FWC198204","label":"Coast at Aberthaw","river":"Coast","area":"NRW South East","type":"warning"}},{"type":"Feature","geometry":{"type":"Point","coordinates":[-4.38746,51.77074]},"properties":{"code":"102FWT425A","label":"Tidal area at Llanstephan South","river":"Carmarthenshire coast","area":"NRW South West","type":"warning"}},{"type":"Feature","geometry":{"type":"Point","coordinates":[-4.31582,52.03577]},"properties":{"code":"102FWF153B","label":"River Tyweli at Station Road, Llandysul","river":"Teifi","area":"NRW South West","type":"warning"}},{"type":"Feature","geometry":{"type":"Point","coordinates":[-3.59525,53.29168]},"properties":{"code":"101FWTWN415","label":"Abergele Sea Road","river":"Irish Sea","area":"NRW Northern","type":"warning"}},{"type":"Feature","geometry":{"type":"Point","coordinates":[-3.69538,51.71006]},"properties":{"code":"102FWF110B","label":"Clydach Brook at Resolven","river":"Neath","area":"NRW South West","type":"warning"}},{"type":"Feature","geometry":{"type":"Point","coordinates":[-3.12753,51.58761]},"properties":{"code":"103FWF197212","label":"River Rhymney at Machen","river":"River Rhymney","area":"NRW South East","type":"warning"}},{"type":"Feature","geometry":{"type":"Point","coordinates":[-4.12982,52.18558]},"properties":{"code":"102FWF160A","label":"River Aeron at Talsarn","river":"Aeron","area":"NRW South West","type":"warning"}},{"type":"Feature","geometry":{"type":"Point","coordinates":[-4.30978,52.0399]},"properties":{"code":"102FWF153A","label":"River Teifi at Llandysul Bridge, Llandysul","river":"Teifi","area":"NRW South West","type":"warning"}},{"type":"Feature","geometry":{"type":"Point","coordinates":[-3.45019,53.25673]},"properties":{"code":"101FWFWN204","label":"River Elwy at St Asaph","river":"River Elwy","area":"NRW Northern","type":"warning"}},{"type":"Feature","geometry":{"type":"Point","coordinates":[-3.14465,51.70445]},"properties":{"code":"103FWF197304","label":"Ebbw Fach at Aberbeeg","river":"Ebbw","area":"NRW South East","type":"warning"}},{"type":"Feature","geometry":{"type":"Point","coordinates":[-3.58129,51.50803]},"properties":{"code":"102FWF105D","label":"River Ogmore at town centre, Bridgend","river":"Ogmore","area":"NRW South West","type":"warning"}},{"type":"Feature","geometry":{"type":"Point","coordinates":[-3.43348,53.33017]},"properties":{"code":"101FWTWN355","label":"Prestatyn and East Rhyl","river":"Irish Sea","area":"NRW Northern","type":"warning"}},{"type":"Feature","geometry":{"type":"Point","coordinates":[-3.25481,51.40042]},"properties":{"code":"103FWC198203","label":"Coast at Swanbridge and Barry","river":"Coast","area":"NRW South East","type":"warning"}},{"type":"Feature","geometry":{"type":"Point","coordinates":[-3.18304,51.73938]},"properties":{"code":"103FWF197303","label":"Ebbw Fawr at Cwm","river":"Ebbw","area":"NRW South East","type":"warning"}},{"type":"Feature","geometry":{"type":"Point","coordinates":[-2.98377,51.57224]},"properties":{"code":"103FWTt06","label":"Usk Estuary at Uskmouth and Old Town Docks","river":"Usk Estuary","area":"NRW South East","type":"warning"}},{"type":"Feature","geometry":{"type":"Point","coordinates":[-3.47919,53.30274]},"properties":{"code":"101FWTWN370","label":"Clwyd Right Bank","river":"Irish Sea","area":"NRW Northern","type":"warning"}},{"type":"Feature","geometry":{"type":"Point","coordinates":[-3.52033,51.66574]},"properties":{"code":"103FWF197161","label":"Rhondda Fawr at Treherbert","river":"Rhondda","area":"NRW South East","type":"warning"}},{"type":"Feature","geometry":{"type":"Point","coordinates":[-3.15113,53.17779]},"properties":{"code":"101FWFWN213","label":"River Alyn at Rhyd-y-goleu","river":"River Alyn","area":"NRW Northern","type":"warning"}},{"type":"Feature","geometry":{"type":"Point","coordinates":[-3.39075,51.54596]},"properties":{"code":"103FWF197001","label":"River Ely at Ynysmaerdy Industrial Estate","river":"River Ely","area":"NRW South East","type":"warning"}},{"type":"Feature","geometry":{"type":"Point","coordinates":[-4.95937,51.80419]},"properties":{"code":"102FWF145C","label":"Cartlett Brook, Haverfordwest","river":"Western Cleddau","area":"NRW South West","type":"warning"}},{"type":"Feature","geometry":{"type":"Point","coordinates":[-3.29978,53.33081]},"properties":{"code":"101FWTWN330","label":"Ffynnongroyw Frontage","river":"Irish Sea","area":"NRW Northern","type":"warning"}},{"type":"Feature","geometry":{"type":"Point","coordinates":[-3.24204,51.51636]},"properties":{"code":"103FWF197113","label":"River Taff at Forest Farm and Melingriffith","river":"River Taff","area":"NRW South East","type":"warning"}},{"type":"Feature","geometry":{"type":"Point","coordinates":[-4.1697,51.87234]},"properties":{"code":"102FWF138A","label":"River Cothi at low lying areas - Pontargothi and Pontynyswen","river":"Cothi","area":"NRW South West","type":"warning"}},{"type":"Feature","geometry":{"type":"Point","coordinates":[-4.25749,52.23826]},"properties":{"code":"102FWF161A","label":"River Aeron at Aberaeron","river":"Aeron","area":"NRW South West","type":"warning"}},{"type":"Feature","geometry":{"type":"Point","coordinates":[-3.55918,53.30166]},"properties":{"code":"101FWTWN400","label":"Towyn, Belgrano and Pensarn Seafront","river":"Irish Sea","area":"NRW Northern","type":"warning"}},{"type":"Feature","geometry":{"type":"Point","coordinates":[-4.37119,51.76241]},"properties":{"code":"102FWC420B","label":"Tidal area south of railway station, Ferryside","river":"Carmarthenshire coast","area":"NRW South West","type":"warning"}},{"type":"Feature","geometry":{"type":"Point","coordinates":[-3.82235,51.63232]},"properties":{"code":"102FWT408A","label":"Tidal area at Briton Ferry","river":"Irish Sea","area":"NRW South West","type":"warning"}},{"type":"Feature","geometry":{"type":"Point","coordinates":[-3.14049,51.85801]},"properties":{"code":"103FWF014","label":"River Usk at Crickhowell","river":"River Usk","area":"NRW South East","type":"warning"}},{"type":"Feature","geometry":{"type":"Point","coordinates":[-4.43972,52.88067]},"properties":{"code":"101FWFWN223","label":"River Rhyd Hir at Riverside Terrace, Pwllheli","river":"River Rhyd Hir","area":"NRW Northern","type":"warning"}},{"type":"Feature","geometry":{"type":"Point","coordinates":[-3.04448,51.57815]},"properties":{"code":"103FWF024","label":"River Ebbw at Bassaleg and Duffryn","river":"Ebbw","area":"NRW South East","type":"warning"}},{"type":"Feature","geometry":{"type":"Point","coordinates":[-3.93024,51.61701]},"properties":{"code":"102FWT410A","label":"Tidal area at Swansea","river":"Irish Sea","area":"NRW South West","type":"warning"}},{"type":"Feature","geometry":{"type":"Point","coordinates":[-3.71373,51.47844]},"properties":{"code":"102FWC404B","label":"Tidal area at Porthcawl","river":"Irish Sea","area":"NRW South West","type":"warning"}},{"type":"Feature","geometry":{"type":"Point","coordinates":[-3.85567,52.59141]},"properties":{"code":"101FWFWN228","label":"River Dyfi at Machynlleth and Derwenlas","river":"River Dyfi","area":"NRW Northern","type":"warning"}},{"type":"Feature","geometry":{"type":"Point","coordinates":[-3.49203,51.65132]},"properties":{"code":"103FWF197162","label":"Rhondda Fawr at Pentre","river":"Rhondda","area":"NRW South East","type":"warning"}},{"type":"Feature","geometry":{"type":"Point","coordinates":[-3.44784,51.66556]},"properties":{"code":"103FWF197164","label":"Rhondda Fach at Ferndale","river":"Rhondda","area":"NRW South East","type":"warning"}},{"type":"Feature","geometry":{"type":"Point","coordinates":[-4.17166,52.91059]},"properties":{"code":"101FWTWN640","label":"Morfa Bychan","river":"Irish Sea","area":"NRW Northern","type":"warning"}},{"type":"Feature","geometry":{"type":"Point","coordinates":[-3.23884,53.30338]},"properties":{"code":"101FWTWN465","label":"Mostyn Docks to Manor Industrial Estate","river":"Irish Sea","area":"NRW Northern","type":"warning"}},{"type":"Feature","geometry":{"type":"Point","coordinates":[-3.33382,53.34816]},"properties":{"code":"101FWTWN340","label":"Talacre and The Warren","river":"Irish Sea","area":"NRW Northern","type":"warning"}},{"type":"Feature","geometry":{"type":"Point","coordinates":[-3.06259,53.13149]},"properties":{"code":"101FWFWN216","label":"River Alyn at Pontblyddyn","river":"River Alyn","area":"NRW Northern","type":"warning"}},{"type":"Feature","geometry":{"type":"Point","coordinates":[-3.88432,51.67122]},"properties":{"code":"102FWF122A","label":"Nant Bran at Birchgrove, Swansea","river":"Nant-Y-Fendrod, Nant Bran","area":"NRW South West","type":"warning"}},{"type":"Feature","geometry":{"type":"Point","coordinates":[-5.10814,51.77417]},"properties":{"code":"102FWC439A","label":"Tidal area at Little Haven","river":"Irish Sea","area":"NRW South West","type":"warning"}},{"type":"Feature","geometry":{"type":"Point","coordinates":[-4.26852,51.86624]},"properties":{"code":"102FWF133B","label":"River Towy at Abergwili","river":"Towy","area":"NRW South West","type":"warning"}},{"type":"Feature","geometry":{"type":"Point","coordinates":[-4.61701,53.27972]},"properties":{"code":"101FWTWN490","label":"Trearddur Bay","river":"Irish Sea","area":"NRW Northern","type":"warning"}},{"type":"Feature","geometry":{"type":"Point","coordinates":[-3.49082,53.32339]},"properties":{"code":"101FWTWN360","label":"Rhyl Seafront","river":"Irish Sea","area":"NRW Northern","type":"warning"}},{"type":"Feature","geometry":{"type":"Point","coordinates":[-3.88465,51.94021]},"properties":{"code":"102FWF137A","label":"River Bran at Pont Bran, Llangadog","river":"Bran","area":"NRW South West","type":"warning"}},{"type":"Feature","geometry":{"type":"Point","coordinates":[-3.19582,51.49138]},"properties":{"code":"103FWF051","label":"River Taff at Pontcanna Fields, Cardiff","river":"River Taff","area":"NRW South East","type":"warning"}},{"type":"Feature","geometry":{"type":"Point","coordinates":[-3.22394,51.50433]},"properties":{"code":"103FWF197115","label":"River Taff at Radyr Court Road, Cardiff","river":"River Taff","area":"NRW South East","type":"warning"}},{"type":"Feature","geometry":{"type":"Point","coordinates":[-4.04653,52.49253]},"properties":{"code":"101FWFWN231","label":"River Leri at Borth","river":"Leri","area":"NRW Northern","type":"warning"}},{"type":"Feature","geometry":{"type":"Point","coordinates":[-3.41014,53.34089]},"properties":{"code":"101FWTWN350","label":"Prestatyn Beach Road","river":"Irish Sea","area":"NRW Northern","type":"warning"}},{"type":"Feature","geometry":{"type":"Point","coordinates":[-3.37775,51.61002]},"properties":{"code":"103FWF197166","label":"River Rhondda at Trehafod","river":"Rhondda","area":"NRW South East","type":"warning"}},{"type":"Feature","geometry":{"type":"Point","coordinates":[-3.797,51.99151]},"properties":{"code":"102FWF136B","label":"River Bran at town centre, Llandovery","river":"Bran","area":"NRW South West","type":"warning"}},{"type":"Feature","geometry":{"type":"Point","coordinates":[-3.72893,51.79804]},"properties":{"code":"102FWF115A","label":"River Tawe at Abercraf","river":"Tawe","area":"NRW South West","type":"warning"}},{"type":"Feature","geometry":{"type":"Point","coordinates":[-3.4114,51.62708]},"properties":{"code":"103FWF197168","label":"Rhondda Fach at Ynyshir","river":"Rhondda","area":"NRW South East","type":"warning"}},{"type":"Feature","geometry":{"type":"Point","coordinates":[-3.49445,51.527]},"properties":{"code":"102FWF106F","label":"River Ewenny at Penybont Road, Pencoed","river":"Ewenny","area":"NRW South West","type":"warning"}},{"type":"Feature","geometry":{"type":"Point","coordinates":[-3.00812,51.64795]},"properties":{"code":"103FWF197313","label":"River Lwyd at Llanyrafon","river":"River Lwyd","area":"NRW South East","type":"warning"}},{"type":"Feature","geometry":{"type":"Point","coordinates":[-3.14642,51.49558]},"properties":{"code":"103FWF197215","label":"River Rhymney at Industrial area near Rumney Bridge","river":"River Rhymney","area":"NRW South East","type":"warning"}},{"type":"Feature","geometry":{"type":"Point","coordinates":[-3.45414,52.47209]},"properties":{"code":"101FWFWN255","label":"River Severn in the Dolwen and Llandinam Area","river":"River Severn","area":"NRW Northern","type":"warning"}},{"type":"Feature","geometry":{"type":"Point","coordinates":[-3.45954,51.71965]},"properties":{"code":"103FWF053","label":"River Cynon at Aberdare","river":"River Cynon","area":"NRW South East","type":"warning"}},{"type":"Feature","geometry":{"type":"Point","coordinates":[-3.28902,52.52188]},"properties":{"code":"101FWFWN259","label":"River Severn at Dyffryn, Newtown","river":"River Severn","area":"NRW Northern","type":"warning"}},{"type":"Feature","geometry":{"type":"Point","coordinates":[-3.88726,52.74244]},"properties":{"code":"101FWFWN206","label":"River Wnion at Dolgellau","river":"River Wnion","area":"NRW Northern","type":"warning"}},{"type":"Feature","geometry":{"type":"Point","coordinates":[-4.69829,51.73657]},"properties":{"code":"102FWF142A","label":"River Fords Lake at Brook Cottages, Stepaside","river":"Fords Lake","area":"NRW South West","type":"warning"}},{"type":"Feature","geometry":{"type":"Point","coordinates":[-4.32584,53.16641]},"properties":{"code":"101FWTWN590","label":"Dwyran","river":"Irish Sea","area":"NRW Northern","type":"warning"}},{"type":"Feature","geometry":{"type":"Point","coordinates":[-4.96908,51.99508]},"properties":{"code":"102FWC450A","label":"Tidal area at Lower Town Fishguard","river":"Irish Sea","area":"NRW South West","type":"warning"}},{"type":"Feature","geometry":{"type":"Point","coordinates":[-3.50557,53.2886]},"properties":{"code":"101FWTWN380","label":"Clwyd Left Bank","river":"Irish Sea","area":"NRW Northern","type":"warning"}},{"type":"Feature","geometry":{"type":"Point","coordinates":[-3.2519,51.52223]},"properties":{"code":"103FWF047","label":"River Taff at Longwood Drive Industrial Estate","river":"River Taff","area":"NRW South East","type":"warning"}},{"type":"Feature","geometry":{"type":"Point","coordinates":[-3.21663,51.4331]},"properties":{"code":"103FWF197501","label":"River Cadoxton at Dinas Powys","river":"River Cadoxton","area":"NRW South East","type":"warning"}},{"type":"Feature","geometry":{"type":"Point","coordinates":[-2.99768,51.59858]},"properties":{"code":"103FWTt03","label":"Usk Estuary at Crindau and Malpas Road Area","river":"Usk Estuary","area":"NRW South East","type":"warning"}},{"type":"Feature","geometry":{"type":"Point","coordinates":[-4.04253,52.69718]},"properties":{"code":"101FWTWN525","label":"Fairbourne and Arthog","river":"Irish Sea","area":"NRW Northern","type":"warning"}},{"type":"Feature","geometry":{"type":"Point","coordinates":[-3.58409,51.51879]},"properties":{"code":"102FWF105C","label":"River Ogmore at Wild Mill, Bridgend","river":"Ogmore","area":"NRW South West","type":"warning"}},{"type":"Feature","geometry":{"type":"Point","coordinates":[-4.96778,51.80273]},"properties":{"code":"102FWB436A","label":"Tidal area at Haverfordwest","river":"Irish Sea","area":"NRW South West","type":"warning"}},{"type":"Feature","geometry":{"type":"Point","coordinates":[-4.65786,52.08906]},"properties":{"code":"102FWF156A","label":"River Mwldan at Cardigan","river":"Mwldan","area":"NRW South West","type":"warning"}},{"type":"Feature","geometry":{"type":"Point","coordinates":[-4.25409,51.68162]},"properties":{"code":"102FWT421A","label":"Tidal area at Burry Port","river":"Irish Sea","area":"NRW South West","type":"warning"}},{"type":"Feature","geometry":{"type":"Point","coordinates":[-3.0431,51.54607]},"properties":{"code":"103FWCt04","label":"Coast at the Wentlooge Levels in the Newport Area","river":"Coast","area":"NRW South East","type":"warning"}},{"type":"Feature","geometry":{"type":"Point","coordinates":[-3.4159,51.69766]},"properties":{"code":"103FWF197133","label":"River Cynon at Aberaman","river":"River Cynon","area":"NRW South East","type":"warning"}},{"type":"Feature","geometry":{"type":"Point","coordinates":[-3.20854,51.47607]},"properties":{"code":"103FWF197010","label":"River Ely at Ely in Cardiff","river":"River Ely","area":"NRW South East","type":"warning"}},{"type":"Feature","geometry":{"type":"Point","coordinates":[-3.49756,51.3979]},"properties":{"code":"102FWC400A","label":"Tidal area at Llantwit Major","river":"Irish Sea","area":"NRW South West","type":"warning"}},{"type":"Feature","geometry":{"type":"Point","coordinates":[-3.97683,53.25914]},"properties":{"code":"101FWTWN560","label":"Llanfairfechan","river":"Irish Sea","area":"NRW Northern","type":"warning"}},{"type":"Feature","geometry":{"type":"Point","coordinates":[-5.18741,51.87571]},"properties":{"code":"102FWB146A","label":"River Solva at Solva","river":"Solva","area":"NRW South West","type":"warning"}},{"type":"Feature","geometry":{"type":"Point","coordinates":[-3.29849,53.32999]},"properties":{"code":"101FWTWN335","label":"Ffynnongroyw","river":"Irish Sea","area":"NRW Northern","type":"warning"}},{"type":"Feature","geometry":{"type":"Point","coordinates":[-3.53893,51.61833]},"properties":{"code":"102FWF100A","label":"River Ogmore at Nant-y-moel","river":"Ogmore","area":"NRW South West","type":"warning"}},{"type":"Feature","geometry":{"type":"Point","coordinates":[-4.08781,52.41482]},"properties":{"code":"102FWC456A","label":"Tidal area at Aberystwyth seafront","river":"Irish Sea","area":"NRW South West","type":"warning"}},{"type":"Feature","geometry":{"type":"Point","coordinates":[-4.37063,51.76862]},"properties":{"code":"102FWC420A","label":"Tidal area near the Yacht Club, Ferryside","river":"Carmarthenshire coast","area":"NRW South West","type":"warning"}},{"type":"Feature","geometry":{"type":"Point","coordinates":[-4.16049,52.07686]},"properties":{"code":"102FWF151B","label":"River Teifi at Llanybyther","river":"Teifi","area":"NRW South West","type":"warning"}},{"type":"Feature","geometry":{"type":"Point","coordinates":[-2.90129,51.69975]},"properties":{"code":"103FWF016","label":"River Usk at Usk Town","river":"River Usk","area":"NRW South East","type":"warning"}},{"type":"Feature","geometry":{"type":"Point","coordinates":[-3.51969,53.31081]},"properties":{"code":"101FWTWN395","label":"Kinmel Bay","river":"Irish Sea","area":"NRW Northern","type":"warning"}},{"type":"Feature","geometry":{"type":"Point","coordinates":[-3.13006,51.72202]},"properties":{"code":"103FWF197302","label":"Ebbw Fach at Six Bells","river":"Ebbw","area":"NRW South East","type":"warning"}},{"type":"Feature","geometry":{"type":"Point","coordinates":[-3.86111,52.28217]},"properties":{"code":"102FWF150A","label":"River Teifi at Pontrhydfendigaid","river":"Teifi","area":"NRW South West","type":"warning"}},{"type":"Feature","geometry":{"type":"Point","coordinates":[-4.14074,51.66967]},"properties":{"code":"102FWT416B","label":"Tidal area at Machynys, Llanelli","river":"Carmarthenshire coast","area":"NRW South West","type":"warning"}},{"type":"Feature","geometry":{"type":"Point","coordinates":[-4.38605,52.89702]},"properties":{"code":"101FWTWN630","label":"Aber Erch Dunes","river":"Irish Sea","area":"NRW Northern","type":"warning"}},{"type":"Feature","geometry":{"type":"Point","coordinates":[-4.07464,52.41152]},"properties":{"code":"102FWF162C","label":"River Rheidol at Glan-yr-Afon Industrial Estate and Retail Park, Aberystwyth","river":"Rheidol","area":"NRW South West","type":"warning"}},{"type":"Feature","geometry":{"type":"Point","coordinates":[-4.29887,51.85393]},"properties":{"code":"102FWF134D","label":"River Towy at Old Llangunnor Road, Carmarthen","river":"Towy","area":"NRW South West","type":"warning"}},{"type":"Feature","geometry":{"type":"Point","coordinates":[-4.18392,53.29876]},"properties":{"code":"101FWTWN580","label":"Red Wharf Bay","river":"Irish Sea","area":"NRW Northern","type":"warning"}},{"type":"Feature","geometry":{"type":"Point","coordinates":[-4.31037,53.25391]},"properties":{"code":"101FWFWN232","label":"River Cefni at Llangefni","river":"River Cefni","area":"NRW Northern","type":"warning"}},{"type":"Feature","geometry":{"type":"Point","coordinates":[-2.90544,53.00469]},"properties":{"code":"101FWFWN200","label":"River Dee at Bangor on Dee","river":"River Dee","area":"NRW Northern","type":"warning"}},{"type":"Feature","geometry":{"type":"Point","coordinates":[-3.8027,51.99441]},"properties":{"code":"102FWF135A","label":"River Towy at Llandovery west","river":"Towy","area":"NRW South West","type":"warning"}},{"type":"Feature","geometry":{"type":"Point","coordinates":[-3.34096,51.69438]},"properties":{"code":"103FWF040","label":"River Taff at Aberfan","river":"River Taff","area":"NRW South East","type":"warning"}},{"type":"Feature","geometry":{"type":"Point","coordinates":[-3.16759,51.43399]},"properties":{"code":"103FWC198202","label":"Coast at Penarth","river":"Coast","area":"NRW South East","type":"warning"}},{"type":"Feature","geometry":{"type":"Point","coordinates":[-3.50832,51.73978]},"properties":{"code":"103FWF197132","label":"River Cynon at Hirwaun","river":"River Cynon","area":"NRW South East","type":"warning"}},{"type":"Feature","geometry":{"type":"Point","coordinates":[-3.85168,51.7164]},"properties":{"code":"102FWF119A","label":"River Tawe at Ynysderw Road and Cwm-Du, Pontardawe","river":"Tawe","area":"NRW South West","type":"warning"}},{"type":"Feature","geometry":{"type":"Point","coordinates":[-3.31593,53.11271]},"properties":{"code":"101FWFWN226","label":"River Clwyd at Pont Howkin, Ruthin","river":"Clwyd","area":"NRW Northern","type":"warning"}},{"type":"Feature","geometry":{"type":"Point","coordinates":[-3.29358,51.5734]},"properties":{"code":"103FWF602001","label":"River Taff at Upper Boat","river":"River Taff","area":"NRW South East","type":"warning"}},{"type":"Feature","geometry":{"type":"Point","coordinates":[-3.2246,52.7217]},"properties":{"code":"101FWFWN250","label":"River Vyrnwy in the Meifod area","river":"River Vyrnwy","area":"NRW Northern","type":"warning"}},{"type":"Feature","geometry":{"type":"Point","coordinates":[-3.23407,52.54969]},"properties":{"code":"101FWFWN261","label":"River Severn in the Abermule and Fron Area","river":"River Severn","area":"NRW Northern","type":"warning"}},{"type":"Feature","geometry":{"type":"Point","coordinates":[-3.1468,52.76727]},"properties":{"code":"101FWFWN252","label":"River Vyrnwy at Llansantffraid","river":"River Vyrnwy","area":"NRW Northern","type":"warning"}},{"type":"Feature","geometry":{"type":"Point","coordinates":[-4.06104,52.40649]},"properties":{"code":"102FWB162A","label":"River Rheidol for low lying areas, Aberystwyth","river":"Rheidol","area":"NRW South West","type":"warning"}},{"type":"Feature","geometry":{"type":"Point","coordinates":[-3.39601,51.5328]},"properties":{"code":"103FWF197002","label":"River Ely at Lanelay","river":"River Ely","area":"NRW South East","type":"warning"}},{"type":"Feature","geometry":{"type":"Point","coordinates":[-4.3562,51.73804]},"properties":{"code":"102FWC419A","label":"Tidal area at Carmarthen Bay Holiday Park, Kidwelly","river":"Carmarthenshire coast","area":"NRW South West","type":"warning"}},{"type":"Feature","geometry":{"type":"Point","coordinates":[-3.50315,51.51741]},"properties":{"code":"102FWF106E","label":"River Ewenny at Pencoed","river":"Ewenny","area":"NRW South West","type":"warning"}},{"type":"Feature","geometry":{"type":"Point","coordinates":[-3.60771,53.21741]},"properties":{"code":"101FWFWN235","label":"Nant Barrog at Llanfair Talhaiarn","river":"Nant Barrog","area":"NRW Northern","type":"warning"}},{"type":"Feature","geometry":{"type":"Point","coordinates":[-4.06638,52.73138]},"properties":{"code":"101FWTWN510","label":"Barmouth Harbour and Hendre Mynach","river":"Irish Sea","area":"NRW Northern","type":"warning"}},{"type":"Feature","geometry":{"type":"Point","coordinates":[-3.10431,51.51399]},"properties":{"code":"103FWC198206","label":"Coast at the Wentlooge Levels in the Cardiff Area","river":"Coast","area":"NRW South East","type":"warning"}},{"type":"Feature","geometry":{"type":"Point","coordinates":[-3.6476,51.60402]},"properties":{"code":"102FWF101A","label":"River Llynfi at Maesteg","river":"Llynfi","area":"NRW South West","type":"warning"}},{"type":"Feature","geometry":{"type":"Point","coordinates":[-4.55323,51.74471]},"properties":{"code":"102FWC430A","label":"Tidal area at Pendine","river":"Irish Sea","area":"NRW South West","type":"warning"}},{"type":"Feature","geometry":{"type":"Point","coordinates":[-3.44295,53.23467]},"properties":{"code":"101FWFWN224","label":"River Elwy at Lower Denbigh Road","river":"River Elwy","area":"NRW Northern","type":"warning"}},{"type":"Feature","geometry":{"type":"Point","coordinates":[-4.30555,51.70511]},"properties":{"code":"102FWT417A","label":"Tidal area at Pembrey","river":"Carmarthenshire coast","area":"NRW South West","type":"warning"}},{"type":"Feature","geometry":{"type":"Point","coordinates":[-4.17485,51.77931]},"properties":{"code":"102FWF128B","label":"River Gwendraeth Fawr at Pontyberem","river":"Gwendraeth Fawr","area":"NRW South West","type":"warning"}},{"type":"Feature","geometry":{"type":"Point","coordinates":[-3.3254,51.48899]},"properties":{"code":"103FWF072","label":"River Ely at Peterston Super Ely","river":"River Ely","area":"NRW South East","type":"warning"}},{"type":"Feature","geometry":{"type":"Point","coordinates":[-4.9683,51.80534]},"properties":{"code":"102FWF145B","label":"River Western Cleddau at town centre, Haverfordwest","river":"Western Cleddau","area":"NRW South West","type":"warning"}},{"type":"Feature","geometry":{"type":"Point","coordinates":[-3.38774,51.94311]},"properties":{"code":"103FWF012","label":"River Usk at Brecon","river":"River Usk","area":"NRW South East","type":"warning"}},{"type":"Feature","geometry":{"type":"Point","coordinates":[-3.14124,52.64647]},"properties":{"code":"101FWFWN266","label":"River Severn in the Welshpool Area","river":"River Severn","area":"NRW Northern","type":"warning"}},{"type":"Feature","geometry":{"type":"Point","coordinates":[-4.25826,52.24464]},"properties":{"code":"102FWC454A","label":"Tidal area at Aberaeron","river":"Irish Sea","area":"NRW South West","type":"warning"}},{"type":"Feature","geometry":{"type":"Point","coordinates":[-4.05667,52.40626]},"properties":{"code":"102FWF162B","label":"River Rheidol at Llanbadarn Industrial Estate, Aberystwyth","river":"Rheidol","area":"NRW South West","type":"warning"}},{"type":"Feature","geometry":{"type":"Point","coordinates":[-3.76422,51.59028]},"properties":{"code":"102FWF109A","label":"River Ffrwdwyllt at Taibach, Port Talbot","river":"Afan","area":"NRW South West","type":"warning"}},{"type":"Feature","geometry":{"type":"Point","coordinates":[-3.78552,51.76095]},"properties":{"code":"102FWF118A","label":"River Tawe at Ystalyfera","river":"Tawe","area":"NRW South West","type":"warning"}},{"type":"Feature","geometry":{"type":"Point","coordinates":[-3.41099,51.61264]},"properties":{"code":"103FWF063","label":"River Rhondda at Porth","river":"River Rhondda","area":"NRW South East","type":"warning"}},{"type":"Feature","geometry":{"type":"Point","coordinates":[-3.84034,53.28735]},"properties":{"code":"101FWTWN550","label":"Conwy","river":"Irish Sea","area":"NRW Northern","type":"warning"}},{"type":"Feature","geometry":{"type":"Point","coordinates":[-3.61193,51.74819]},"properties":{"code":"102FWF111A","label":"River Neath at Pont Walby, Glyn-Neath","river":"Neath","area":"NRW South West","type":"warning"}},{"type":"Feature","geometry":{"type":"Point","coordinates":[-3.39515,51.53729]},"properties":{"code":"103FWF197003","label":"River Ely at Talbot Green","river":"River Ely","area":"NRW South East","type":"warning"}},{"type":"Feature","geometry":{"type":"Point","coordinates":[-4.46373,51.76935]},"properties":{"code":"102FWT428A","label":"Tidal area at Laugharne","river":"Irish Sea","area":"NRW South West","type":"warning"}},{"type":"Feature","geometry":{"type":"Point","coordinates":[-3.30824,51.66023]},"properties":{"code":"103FWF197104","label":"River Taff at Quakers Yard","river":"River Taff","area":"NRW South East","type":"warning"}},{"type":"Feature","geometry":{"type":"Point","coordinates":[-4.01803,52.43409]},"properties":{"code":"102FWF166B","label":"River Clarach at Gogerddan","river":"Clarach, Silo","area":"NRW South West","type":"warning"}},{"type":"Feature","geometry":{"type":"Point","coordinates":[-4.72259,51.67157]},"properties":{"code":"102FWF144A","label":"River Ritec at Tenby","river":"Ritec","area":"NRW South West","type":"warning"}},{"type":"Feature","geometry":{"type":"Point","coordinates":[-4.69667,51.71281]},"properties":{"code":"102FWC433A","label":"Tidal area at Saundersfoot","river":"Irish Sea","area":"NRW South West","type":"warning"}},{"type":"Feature","geometry":{"type":"Point","coordinates":[-3.20899,51.59094]},"properties":{"code":"103FWF197209","label":"River Rhymney at Bedwas House Industrial Estate","river":"River Rhymney","area":"NRW South East","type":"warning"}},{"type":"Feature","geometry":{"type":"Point","coordinates":[-4.61802,51.81994]},"properties":{"code":"102FWF140A","label":"Rivers Taf and Gronw west of St Johns Street, Whitland","river":"Taf, Gronw","area":"NRW South West","type":"warning"}},{"type":"Feature","geometry":{"type":"Point","coordinates":[-3.98614,51.78834]},"properties":{"code":"102FWF124A","label":"River Amman at Ammanford","river":"Amman","area":"NRW South West","type":"warning"}},{"type":"Feature","geometry":{"type":"Point","coordinates":[-3.1744,51.58866]},"properties":{"code":"103FWF197210","label":"River Rhymney at Pant Glas Industrial Estate","river":"River Rhymney","area":"NRW South East","type":"warning"}},{"type":"Feature","geometry":{"type":"Point","coordinates":[-4.39806,52.88303]},"properties":{"code":"101FWTWN625","label":"Gimblet Rock, Pwllheli","river":"Irish Sea","area":"NRW Northern","type":"warning"}},{"type":"Feature","geometry":{"type":"Point","coordinates":[-3.11368,52.66982]},"properties":{"code":"101FWFWN268","label":"River Severn at Buttington","river":"River Severn","area":"NRW Northern","type":"warning"}},{"type":"Feature","geometry":{"type":"Point","coordinates":[-4.2722,53.11521]},"properties":{"code":"101FWFWN234","label":"River Gwyrfai at Glanrafon, Bontnewydd","river":"River Gwyrfai","area":"NRW Northern","type":"warning"}},{"type":"Feature","geometry":{"type":"Point","coordinates":[-3.54088,52.44914]},"properties":{"code":"101FWFWN254","label":"River Severn at Llanidloes","river":"River Severn","area":"NRW Northern","type":"warning"}},{"type":"Feature","geometry":{"type":"Point","coordinates":[-4.53902,52.04631]},"properties":{"code":"102FWF154B","label":"River Teifi at Cenarth","river":"Teifi","area":"NRW South West","type":"warning"}},{"type":"Feature","geometry":{"type":"Point","coordinates":[-2.99165,51.78591]},"properties":{"code":"103FWF015","label":"River Usk from Glangrwyne to Newbridge on Usk","river":"River Usk","area":"NRW South East","type":"warning"}}]}